Code,Location Name,Type,Nation,Province,LATLONG,Latitude,N/S,Longitude,E/W,UTM,MGRS,National Reference,Air,Sea,Road,IWW,Rail,Pipe,HNS,NSIP,POD,GLN,National ID,APP6-B Symbol,APP6-C Symbol,Classification,Releasability,Remarks,Last Change By,Last Change,Throughput,Storage Areas
AA2932,SATORALJAUJ. RH,Rail Border Crossing Point,HUN: Hungary,,482200N0213900E,48.3666687,N,21.65000153,E,34U 548142 5357259,34U EU 48142 57259,,No,No,Yes,No,Yes,No,No,No,No,,,,,,,,CENTRALLY MANAGED,43718.74056,,
AA2940,STUROVO RH,Rail Border Crossing Point,SVK: Slovakia,,474802N0184100E,47.80055618,N,18.68333435,E,34T 326526 5296731,34T CT 26527 96732,,No,No,Yes,No,Yes,No,No,No,No,,,,,,,,CENTRALLY MANAGED,43718.74056,,
AA5275,MUSZYNA,Rail Border Crossing Point,POL: Poland,,491909N0205039E,49.31916809,N,20.84416771,E,34U 488674 5462948,34U DV 88675 62949,,No,No,Yes,No,Yes,No,No,No,No,,,,,,,,CENTRALLY MANAGED,43718.74056,,
AA5276,KOLBASKOWO RDBC,Road Border Crossing Point,POL: Poland,,532015N0142440E,53.33750153,N,14.41111183,E,33U 460788 5909977,33U VV 60789 09977,,No,No,Yes,No,No,No,No,No,No,,,,,,,ROAD CARGO,CENTRALLY MANAGED,43718.74056,,
AA5277,KUNOWICE,Rail Border Crossing Point,POL: Poland,,522034N0143829E,52.34277725,N,14.64138985,E,33U 475569 5799224,33U VT 75570 99225,,No,No,Yes,No,Yes,No,No,No,No,,,,,,,KUNOWICE-RZEPIN- FRANKFURT,CENTRALLY MANAGED,43718.74056,"Rail:  Assets in / day
Rail:  Assets out / day",
AA5278,ZASIEKI,Rail Border Crossing Point,POL: Poland,,513912N0144046E,51.65333557,N,14.67944622,E,33U 477824 5722530,33U VT 77824 22531,,No,No,Yes,No,Yes,No,No,No,No,,,,,,,ZASIEKI-TUPLICE-FORST,CENTRALLY MANAGED,43718.74056,"Rail:  Assets in / day
Rail:  Assets out / day",
AA5279,GUBIN,Rail Border Crossing Point,POL: Poland,,515630N0144237E,51.94166946,N,14.71027946,E,33U 480084 5754589,33U VT 80085 54590,,No,No,Yes,No,Yes,No,No,No,No,,,,,,,Wiktor,CENTRALLY MANAGED,43718.74056,,
AA5280,ZGORZELEC,Rail Border Crossing Point,POL: Poland,,510839N0150009E,51.14416885,N,15.00249958,E,33U 500174 5665857,33U WS 00175 65857,,No,No,Yes,No,Yes,No,No,No,No,,,,,,,ZGORZELEC - GORLITZ,CENTRALLY MANAGED,43718.74056,,
AA5281,SZCZECIN GUMIENCE,Rail Border Crossing Point,POL: Poland,,532359N0143058E,53.39972305,N,14.51611233,E,33U 467826 5916846,33U VV 67827 16847,,No,No,Yes,No,Yes,No,No,No,No,,,,,,,SZCZECIN GUMIENCE - TANTOW,CENTRALLY MANAGED,43718.74056,"Rail:  Assets in / day
Rail:  Assets out / day",
AA5282,KOSTRZYN ,Rail Border Crossing Point,POL: Poland,,523530N0143853E,52.59166718,N,14.64805698,E,33U 476158 5826906,33U VU 76159 26907,,No,No,Yes,No,Yes,No,No,No,No,,,,,,,Wiktor,CENTRALLY MANAGED,43718.74056,"Rail:  Assets in / day
Rail:  Assets out / day",
AA5285,ZEBRZYDOWICE,Rail Border Crossing Point,POL: Poland,,495220N0183712E,49.8722229,N,18.62000084,E,34U 328988 5527140,34U CA 28989 27140,,No,No,Yes,No,Yes,No,No,No,No,,,,,,,ZEBRZYDOWICE - PETROWICE,CENTRALLY MANAGED,43718.74056,"Rail:  Assets in / day
Rail:  Assets out / day",
AA5305,TERESPOL BRZ PN,Rail Border Crossing Point,POL: Poland,,520550N0233730E,52.09722137,N,23.62500191,E,34U 679801 5775102,34U FC 79802 75103,,No,No,Yes,No,Yes,No,No,No,No,,,,,,,,CENTRALLY MANAGED,43718.74056,,
AA5306,TERESPOL - BRZ CENT,Rail Border Crossing Point,POL: Poland,,520500N0233830E,52.08333206,N,23.64166832,E,34U 680999 5773599,34U FC 80999 73600,,No,No,Yes,No,Yes,No,No,No,No,,,,,,,,CENTRALLY MANAGED,43718.74056,,
AA5307,KUZNICA BIALOSTOCKA,Rail Border Crossing Point,POL: Poland,,533250N0233800E,53.54722214,N,23.63333511,E,34U 674463 5936373,34U FE 74463 36373,,No,No,Yes,No,Yes,No,No,No,No,,,,,,,,CENTRALLY MANAGED,43718.74056,,
AA5308,TRAKISZKI,Rail Border Crossing Point,POL: Poland,,541550N0231340E,54.26388931,N,23.22777748,E,34U 645093 6015172,34U FF 45093 15173,,No,No,Yes,No,Yes,No,No,No,No,,,,,,,,CENTRALLY MANAGED,43718.74056,,
AA5309,SIEMIANOWKA,Rail Border Crossing Point,POL: Poland,,525719N0235528E,52.9552803,N,23.92444611,E,34U 696439 5871298,34U FD 96440 71299,,No,No,Yes,No,Yes,No,No,No,No,,,,,,,,CENTRALLY MANAGED,43718.74056,,
AA5310,CZEREMCHA,Rail Border Crossing Point,POL: Poland,,522755N0232132E,52.46527863,N,23.35889053,E,34U 660243 5815406,34U FD 60243 15406,,No,No,Yes,No,Yes,No,No,No,No,,,,,,,,CENTRALLY MANAGED,43718.74056,,
AA5311,MEDYKA,Rail Border Crossing Point,POL: Poland,,494817N0225700E,49.80472565,N,22.95000267,E,34U 640311 5518743,34U FA 40312 18743,,No,No,Yes,No,Yes,No,No,No,No,,,,,,,MEDYKA - MOSTISKA,CENTRALLY MANAGED,43718.74056,,
AA5312,WERHRATA,Rail Border Crossing Point,POL: Poland,,501511N0233220E,50.25305557,N,23.53889084,E,34U 680987 5569851,34U FA 80987 69851,,No,No,Yes,No,Yes,No,No,No,No,,,,,,,,CENTRALLY MANAGED,43718.74056,,
AA5313,LUPKOW,Rail Border Crossing Point,POL: Poland,,491527N0220423E,49.25749969,N,22.07305527,E,34U 578079 5456635,34U EV 78080 56635,,No,No,Yes,No,Yes,No,No,No,No,,,,,,,,CENTRALLY MANAGED,43718.74056,,
AA5315,KROSCIENKO,Rail Border Crossing Point,POL: Poland,,492830N0224230E,49.47500229,N,22.70833397,E,34U 623756 5481664,34U FV 23756 81664,,No,No,Yes,No,Yes,No,No,No,No,,,,,,,,CENTRALLY MANAGED,43718.74056,,
AA5316,DOROHUSK,Rail Border Crossing Point,POL: Poland,,511100N0235130E,51.18333435,N,23.85833549,E,34U 699758 5674096,34U FB 99759 74096,,No,No,Yes,No,Yes,No,No,No,No,,,,,,,,CENTRALLY MANAGED,43718.74056,,
AA5317,HRUBIESZOW,Rail Border Crossing Point,POL: Poland,,504730N0235730E,50.79166794,N,23.95833588,E,34U 708494 5630830,34U GB 08495 30830,,No,No,Yes,No,Yes,No,No,No,No,,,,,,,,CENTRALLY MANAGED,43718.74056,,
AA5318,HREBENNE,Rail Border Crossing Point,POL: Poland,,501730N0233650E,50.29166794,N,23.61388969,E,34U 686182 5574328,34U FA 86182 74329,,No,No,Yes,No,Yes,No,No,No,No,,,,,,,,CENTRALLY MANAGED,43718.74056,,
AA5319,WEGLINIEC,Rail Border Crossing Point,POL: Poland,,511731N0151253E,51.29194641,N,15.21472263,E,33U 514972 5682312,33U WS 14972 82313,,No,No,Yes,No,Yes,No,No,No,No,,,,,,,WEGLINIEC -  HORKA,CENTRALLY MANAGED,43718.74056,,
AA5320,RECZYN,Rail Border Crossing Point,POL: Poland,,510200N0145730E,51.03333282,N,14.95833492,E,33U 497078 5653532,33U VS 97078 53532,,No,No,Yes,No,Yes,No,No,No,No,,,,,,,,CENTRALLY MANAGED,43718.74056,,
AA5321,TRZCINIEC ZGORZELECKI,Rail Border Crossing Point,POL: Poland,,505730N0145230E,50.95833588,N,14.87500191,E,33U 491220 5645198,33U VS 91221 45199,,No,No,Yes,No,Yes,No,No,No,No,,,,,,,,CENTRALLY MANAGED,43718.74056,,
AA5322,HRADEK,Rail Border Crossing Point,POL: Poland,,505320N0144900E,50.88888931,N,14.81666851,E,33U 487104 5637485,33U VS 87105 37485,,No,No,Yes,No,Yes,No,No,No,No,,,,,,,,CENTRALLY MANAGED,43718.74056,,
AA5323,ZAWIDOW,Rail Border Crossing Point,POL: Poland,,510130N0150320E,51.02500153,N,15.05555534,E,33U 503896 5652606,33U WS 03896 52606,,No,No,Yes,No,Yes,No,No,No,No,,,,,,,,CENTRALLY MANAGED,43718.74056,,
AA5324,LUBAWKA,Rail Border Crossing Point,POL: Poland,,504120N0155830E,50.68888855,N,15.97500229,E,33U 568871 5615682,33U WS 68871 15683,,No,No,Yes,No,Yes,No,No,No,No,,,,,,,,CENTRALLY MANAGED,43718.74056,,
AA5325,MIEROSZOW,Rail Border Crossing Point,POL: Poland,,503830N0161330E,50.64166641,N,16.22500038,E,33U 586616 5610694,33U WS 86617 10694,,No,No,Yes,No,Yes,No,No,No,No,,,,,,,,CENTRALLY MANAGED,43718.74056,,
AA5326,MIEDZYLESIE,Rail Border Crossing Point,POL: Poland,,500839N0163921E,50.14416885,N,16.6558342,E,33U 618310 5555972,33U XR 18311 55973,,No,No,Yes,No,Yes,No,No,No,No,,,,,,,MIEDZYLESIE - LICHKOV,CENTRALLY MANAGED,43718.74056,"Rail:  Assets in / day
Rail:  Assets out / day",
AA5327,GLUCHOLAZY - MIK,Rail Border Crossing Point,POL: Poland,,501910N0172150E,50.31944656,N,17.36388969,E,33U 668279 5576821,33U XR 68279 76821,,No,No,Yes,No,Yes,No,No,No,No,,,,,,,,CENTRALLY MANAGED,43718.74056,,
AA5328,GLUCHOLAZY - JIN,Rail Border Crossing Point,POL: Poland,,501630N0172940E,50.27500153,N,17.4944458,E,33U 677737 5572183,33U XR 77737 72184,,No,No,Yes,No,Yes,No,No,No,No,,,,,,,,CENTRALLY MANAGED,43718.74056,,
AA5329,BRANIEWO,Rail Border Crossing Point,POL: Poland,,542630N0195000E,54.44166946,N,19.83333588,E,34U 424338 6033290,34U DF 24339 33290,,No,No,Yes,No,Yes,No,No,No,No,,,,,,,,CENTRALLY MANAGED,43718.74056,,
AA5330,SKANDAWA,Rail Border Crossing Point,POL: Poland,,542000N0211850E,54.33333588,N,21.31389046,E,34U 520410 6020654,34U EF 20411 20655,,No,No,Yes,No,Yes,No,No,No,No,,,,,,,,CENTRALLY MANAGED,43718.74056,,
AA5331,BARTOSZYCE,Rail Border Crossing Point,POL: Poland,,542150N0204210E,54.36388779,N,20.70277977,E,34U 480687 6024050,34U DF 80688 24050,,No,No,Yes,No,Yes,No,No,No,No,,,,,,,,CENTRALLY MANAGED,43718.74056,,
AA5332,ZWARDON,Rail Border Crossing Point,POL: Poland,,493020N0185730E,49.50555801,N,18.95833588,E,34U 352189 5485661,34U CV 52189 85662,,No,No,Yes,No,Yes,No,No,No,No,,,,,,,,CENTRALLY MANAGED,43718.74056,,
AA5333,CIESZYN,Rail Border Crossing Point,POL: Poland,,494440N0183720E,49.7444458,N,18.6222229,E,34U 328698 5512930,34U CA 28698 12931,,No,No,Yes,No,Yes,No,No,No,No,,,,,,,,CENTRALLY MANAGED,43718.74056,,
AA5334,CHALUPKI,Rail Border Crossing Point,POL: Poland,,495500N0181920E,49.91666794,N,18.32222366,E,34U 307771 5532803,34U CA 07772 32803,,No,No,Yes,No,Yes,No,No,No,No,,,,,,,,CENTRALLY MANAGED,43718.74056,,
AA5644,BRECLAV,Rail Border Crossing Point,CZE: Czech Republic,,484541N0165326E,48.76139069,N,16.89055824,E,33U 638936 5402655,33U XQ 38936 02655,,No,No,Yes,No,Yes,No,No,No,No,,,,,,,,CENTRALLY MANAGED,43718.74056,,
AA5660,C?NOVEC,Road Border Crossing Point,CZE: Czech Republic,,504313N0134147E,50.72027969,N,13.69639015,E,33U 407978 5619529,33U VS 07979 19530,,No,No,Yes,No,No,No,No,No,No,,,,,,,,CENTRALLY MANAGED,43718.74056,,
AA5661,HORA sv. SEBESTIANA,Road Border Crossing Point,CZE: Czech Republic,,503251N0131340E,50.54750061,N,13.22777843,E,33U 374442 5601006,33U US 74442 01007,,No,No,Yes,No,No,No,No,No,No,,,,,,,,CENTRALLY MANAGED,43718.74056,,
AA5662,VEJPRTY,Road Border Crossing Point,CZE: Czech Republic,,502937N0130126E,50.49361038,N,13.02388859,E,33U 359838 5595380,33U UR 59838 95380,,No,No,Yes,No,No,No,No,No,No,,,,,,,,CENTRALLY MANAGED,43718.74056,,
AA5663,VOJTANOV,Road Border Crossing Point,CZE: Czech Republic,,501015N0121903E,50.17083359,N,12.31750107,E,33U 308447 5561069,33U UR 08448 61070,,No,No,Yes,No,No,No,No,No,No,,,,,,,,CENTRALLY MANAGED,43718.74056,,
AA5664,POMEZI nad OHRI,Road Border Crossing Point,CZE: Czech Republic,,500512N0121522E,50.08666611,N,12.2561121,E,33U 303720 5551872,33U UR 03720 51873,,No,No,Yes,No,No,No,No,No,No,,,,,,,,CENTRALLY MANAGED,43718.74056,,
AA5665,ROZVADOV,Road Border Crossing Point,CZE: Czech Republic,,493920N0123138E,49.65555573,N,12.52722359,E,33U 321529 5503271,33U UR 21529 03271,,No,No,Yes,No,No,No,No,No,No,,,,,,,,CENTRALLY MANAGED,43718.74056,,
AA5666,FOLMAVA,Road Border Crossing Point,CZE: Czech Republic,,492032N0125109E,49.34222412,N,12.85250187,E,33U 344010 5467718,33U UQ 44011 67718,,No,No,Yes,No,No,No,No,No,No,,,,,,,,CENTRALLY MANAGED,43718.74056,,
AA5667,STR??N?,Road Border Crossing Point,CZE: Czech Republic,,485254N0134240E,48.88166809,N,13.71111298,E,33U 405505 5415102,33U VQ 05505 15102,,No,No,Yes,No,No,No,No,No,No,,,,,,,,CENTRALLY MANAGED,43718.74056,,
AA5668,CHOT?BUZ,Road Border Crossing Point,CZE: Czech Republic,,494456N0183743E,49.74888992,N,18.62861252,E,34U 329173 5513410,34U CA 29174 13410,,No,No,Yes,No,No,No,No,No,No,,,,,,,,CENTRALLY MANAGED,43718.74056,,
AA5669,MIKULOVICE,Road Border Crossing Point,CZE: Czech Republic,,501814N0171949E,50.30389023,N,17.3302784,E,33U 665940 5575016,33U XR 65941 75016,,No,No,Yes,No,No,No,No,No,No,,,,,,,,CENTRALLY MANAGED,43718.74056,,
AA5670,DOLN? LIPKA,Road Border Crossing Point,CZE: Czech Republic,,500559N0164230E,50.09972382,N,16.70833397,E,33U 622174 5551115,33U XR 22175 51116,,No,No,Yes,No,No,No,No,No,No,,,,,,,,CENTRALLY MANAGED,43718.74056,,
AA5671,NACHOD,Road Border Crossing Point,CZE: Czech Republic,,502542N0161149E,50.42833328,N,16.19694519,E,33U 585015 5586941,33U WR 85016 86941,,No,No,Yes,No,No,No,No,No,No,,,,,,,,CENTRALLY MANAGED,43718.74056,,
AA5672,KR?LOVEC,Road Border Crossing Point,CZE: Czech Republic,,504107N0155847E,50.68527985,N,15.97972393,E,33U 569210 5615285,33U WS 69210 15285,,No,No,Yes,No,No,No,No,No,No,,,,,,,,CENTRALLY MANAGED,43718.74056,,
AA5673,HARRACHOV,Road Border Crossing Point,CZE: Czech Republic,,504746N0152511E,50.79611206,N,15.41972351,E,33U 529580 5627236,33U WS 29581 27236,,No,No,Yes,No,No,No,No,No,No,,,,,,,,CENTRALLY MANAGED,43718.74056,,
AA5674,HR?DEK NAD NISOU,Road Border Crossing Point,CZE: Czech Republic,,504823N0152538E,50.80638885,N,15.42722321,E,33U 530102 5628381,33U WS 30103 28382,,No,No,Yes,No,No,No,No,No,No,,,,,,,,CENTRALLY MANAGED,43718.74056,,
AA5676,STAR? HROZENKOV,Road Border Crossing Point,CZE: Czech Republic,,485713N0175342E,48.95361328,N,17.89500237,E,33U 711931 5426338,33U YQ 11932 26339,,No,No,Yes,No,No,No,No,No,No,,,,,,,,CENTRALLY MANAGED,43718.74056,,
AA5677,BUMB?LKA,Road Border Crossing Point,CZE: Czech Republic,,492352N0182425E,49.39777756,N,18.40694618,E,34U 311862 5474909,34U CV 11862 74910,,No,No,Yes,No,No,No,No,No,No,,,,,,,,CENTRALLY MANAGED,43718.74056,,
AA5679,DOLN? DVO?I?T?,Road Border Crossing Point,CZE: Czech Republic,,483838N0142722E,48.64389038,N,14.45611191,E,33U 459935 5388012,33U VP 59936 88013,,No,No,Yes,No,No,No,No,No,No,,,,,,,,CENTRALLY MANAGED,43718.74056,,
AA5680,?ESKê VELENICE,Road Border Crossing Point,CZE: Czech Republic,,484627N0145906E,48.77416992,N,14.98500156,E,33U 498897 5402351,33U VQ 98898 02352,,No,No,Yes,No,No,No,No,No,No,,,,,,,,CENTRALLY MANAGED,43718.74056,,
AA5681,HAT?,Road Border Crossing Point,CZE: Czech Republic,,484525N0160356E,48.75694656,N,16.06555557,E,33U 578315 5400984,33U WQ 78315 00985,,No,No,Yes,No,No,No,No,No,No,,,,,,,,CENTRALLY MANAGED,43718.74056,,
AA5682,MIKULOV,Road Border Crossing Point,CZE: Czech Republic,,484713N0163826E,48.78694534,N,16.64055634,E,33U 620503 5405069,33U XQ 20503 05070,,No,No,Yes,No,No,No,No,No,No,,,,,,,,CENTRALLY MANAGED,43718.74056,,
AA5683,HR?DEK NAD NISOU,Rail Border Crossing Point,CZE: Czech Republic,,505126N0145100E,50.85722351,N,14.85000134,E,33U 489442 5633958,33U VS 89442 33958,,No,No,No,No,Yes,No,No,No,No,,,,,,,,CENTRALLY MANAGED,43718.74056,,
AA5684,D???N,Rail Border Crossing Point,CZE: Czech Republic,,504635N0141213E,50.77639008,N,14.20361137,E,33U 443849 5625261,33U VS 43850 25261,,No,No,No,No,Yes,No,No,No,No,,,,,,,,CENTRALLY MANAGED,43718.74056,,
AA5685,CHEB,Rail Border Crossing Point,CZE: Czech Republic,,500412N0122253E,50.06999969,N,12.38138962,E,33U 312615 5549698,33U UR 12616 49698,,No,No,No,No,Yes,No,No,No,No,,,,,,,,CENTRALLY MANAGED,43718.74056,,
AA5686,?ESK? KUBICE,Rail Border Crossing Point,CZE: Czech Republic,,492215N0125219E,49.37083435,N,12.87194633,E,33U 345512 5470858,33U UQ 45513 70859,,No,No,No,No,Yes,No,No,No,No,,,,,,,,CENTRALLY MANAGED,43718.74056,,
AA5687,?ESK? T???N,Rail Border Crossing Point,CZE: Czech Republic,,494432N0183726E,49.74222183,N,18.62388992,E,34U 328810 5512680,34U CA 28810 12680,,No,No,No,No,Yes,No,No,No,No,,,,,,,,CENTRALLY MANAGED,43718.74056,,
AA5689,MIKULOVICE,Rail Border Crossing Point,CZE: Czech Republic,,501809N0171919E,50.30250168,N,17.32194519,E,33U 665352 5574843,33U XR 65352 74844,,No,No,No,No,Yes,No,No,No,No,,,,,,,,CENTRALLY MANAGED,43718.74056,,
AA5690,LICHKOV,Rail Border Crossing Point,CZE: Czech Republic,,500549N0163939E,50.0969429,N,16.66083527,E,33U 618784 5550730,33U XR 18785 50730,,No,No,No,No,Yes,No,No,No,No,,,,,,,,CENTRALLY MANAGED,43718.74056,,
AA5691,MEZIMESTI,Rail Border Crossing Point,CZE: Czech Republic,,503739N0161444E,50.62750244,N,16.24555588,E,33U 588096 5609143,33U WS 88097 09143,,No,No,No,No,Yes,No,No,No,No,,,,,,,,CENTRALLY MANAGED,43718.74056,,
AA5692,?ESKê VELENICE,Rail Border Crossing Point,CZE: Czech Republic,,484601N0145729E,48.76694489,N,14.9580574,E,33U 496917 5401549,33U VQ 96918 01549,,No,No,No,No,Yes,No,No,No,No,,,,,,,,CENTRALLY MANAGED,43718.74056,,
AA5693,HORN? DVO?I?T?,Rail Border Crossing Point,CZE: Czech Republic,,483610N0142522E,48.60277939,N,14.42277908,E,33U 457445 5383460,33U VP 57446 83461,,No,No,No,No,Yes,No,No,No,No,,,,,,,,CENTRALLY MANAGED,43718.74056,,
AA5694,LANZHOT,Rail Border Crossing Point,CZE: Czech Republic,,484403N0165744E,48.73416901,N,16.96222496,E,33U 644280 5399762,33U XP 44280 99762,,No,No,No,No,Yes,No,No,No,No,,,,,,,,CENTRALLY MANAGED,43718.74056,,
AA5695,HORN? LIDE?,Rail Border Crossing Point,CZE: Czech Republic,,491114N0180340E,49.18722153,N,18.06111145,E,34U 285862 5452426,34U BV 85863 52427,,No,No,No,No,Yes,No,No,No,No,,,,,,,,CENTRALLY MANAGED,43718.74056,,
AA7792,BOHUMIN,Road Border Crossing Point,CZE: Czech Republic,,495517N0181945E,49.92139053,N,18.32916641,E,34U 308289 5533310,34U CA 08289 33311,,No,No,Yes,No,No,No,No,No,No,,,,,,,,CENTRALLY MANAGED,43718.74056,,
AA7793,BOHUMIN,Rail Border Crossing Point,CZE: Czech Republic,,495409N0182148E,49.90250015,N,18.36333466,E,34U 310667 5531123,34U CA 10667 31124,,No,No,No,No,Yes,No,No,No,No,,,,,,,,CENTRALLY MANAGED,43718.74056,,
AA7802,BOZI DAR,Road Border Crossing Point,CZE: Czech Republic,,502440N0125614E,50.41111374,N,12.93722439,E,33U 353437 5586375,33U UR 53437 86375,,No,No,Yes,No,No,No,No,No,No,,,,,,,,CENTRALLY MANAGED,43718.74056,,
AA7814,BROUMOV,Road Border Crossing Point,CZE: Czech Republic,,495359N0123300E,49.89972305,N,12.55000114,E,33U 324059 5530359,33U UR 24060 30360,,No,No,Yes,No,No,No,No,No,No,,,,,,,,CENTRALLY MANAGED,43718.74056,,
AA7826,CESKA KUBICE,Rail Border Crossing Point,CZE: Czech Republic,,492237N0125159E,49.3769455,N,12.86639023,E,33U 345128 5471549,33U UQ 45129 71549,,No,No,No,No,Yes,No,No,No,No,,,,,,,,CENTRALLY MANAGED,43718.74056,,
AA7834,CESKE VELENICE,Rail Border Crossing Point,CZE: Czech Republic,,484616N0145726E,48.77111435,N,14.95722389,E,33U 496856 5402012,33U VQ 96857 02013,,No,No,No,No,Yes,No,No,No,No,,,,,,,,CENTRALLY MANAGED,43718.74056,,
AA7837,CESKY TESIN,Road Border Crossing Point,CZE: Czech Republic,,494547N0183647E,49.76305771,N,18.61305618,E,34U 328103 5515020,34U CA 28104 15021,,No,No,Yes,No,No,No,No,No,No,,,,,,,,CENTRALLY MANAGED,43718.74056,,
AA7838,CESKY TESIN,Rail Border Crossing Point,CZE: Czech Republic,,494424N0183728E,49.74000168,N,18.62444496,E,34U 328842 5512431,34U CA 28843 12432,,No,No,No,No,Yes,No,No,No,No,,,,,,,,CENTRALLY MANAGED,43718.74056,,
AA7850,CINOVEC,Road Border Crossing Point,CZE: Czech Republic,,504359N0134617E,50.73305893,N,13.77139091,E,33U 413296 5620860,33U VS 13296 20860,,No,No,Yes,No,No,No,No,No,No,,,,,,,,CENTRALLY MANAGED,43718.74056,,
AA7853,DECIN,Rail Border Crossing Point,CZE: Czech Republic,,504626N0141206E,50.77389145,N,14.20166683,E,33U 443709 5624984,33U VS 43710 24985,,No,No,No,No,Yes,No,No,No,No,,,,,,,,CENTRALLY MANAGED,43718.74056,,
AA7868,DOLNI DVORISTE,Road Border Crossing Point,CZE: Czech Republic,,483843N0142718E,48.64527893,N,14.45500088,E,33U 459855 5388167,33U VP 59855 88168,,No,No,Yes,No,No,No,No,No,No,,,,,,,,CENTRALLY MANAGED,43718.74056,,
AA7875,HABARTICE,Road Border Crossing Point,CZE: Czech Republic,,510123N0150357E,51.02305603,N,15.06583309,E,33U 504617 5652390,33U WS 04617 52391,,No,No,Yes,No,No,No,No,No,No,,,,,,,,CENTRALLY MANAGED,43718.74056,,
AA7877,HALAMKY,Road Border Crossing Point,CZE: Czech Republic,,484922N0145806E,48.82278061,N,14.96833515,E,33U 497675 5407755,33U VQ 97676 07756,,No,No,Yes,No,No,No,No,No,No,,,,,,,,CENTRALLY MANAGED,43718.74056,,
AA7884,HLUCIN,Road Border Crossing Point,CZE: Czech Republic,,495627N0181650E,49.94083405,N,18.28055573,E,34U 304878 5535597,34U CA 04879 35598,,No,No,Yes,No,No,No,No,No,No,,,,,,,,CENTRALLY MANAGED,43718.74056,,
AA7894,HORNI BECVA,Road Border Crossing Point,CZE: Czech Republic,,492403N0182426E,49.40083313,N,18.40722275,E,34U 311893 5475248,34U CV 11894 75249,,No,No,Yes,No,No,No,No,No,No,,,,,,,,CENTRALLY MANAGED,43718.74056,,
AA7896,HORNI DVORISTE,Rail Border Crossing Point,CZE: Czech Republic,,483615N0142515E,48.60416794,N,14.42083454,E,33U 457303 5383616,33U VP 57304 83616,,No,No,No,No,Yes,No,No,No,No,,,,,,,,CENTRALLY MANAGED,43718.74056,,
AA7898,HORNI LIDEC,Rail Border Crossing Point,CZE: Czech Republic,,491119N0180335E,49.18861008,N,18.0597229,E,34U 285767 5452585,34U BV 85767 52585,,No,No,No,No,Yes,No,No,No,No,,,,,,,,CENTRALLY MANAGED,43718.74056,,
AA7910,HRADEK nad NISOU,Road Border Crossing Point,CZE: Czech Republic,,505220N0144949E,50.8722229,N,14.83027935,E,33U 488057 5635629,33U VS 88058 35629,,No,No,Yes,No,No,No,No,No,No,,,,,,,,CENTRALLY MANAGED,43718.74056,,
AA7960,KRALIKY,Road Border Crossing Point,CZE: Czech Republic,,500554N0164216E,50.09833527,N,16.70444679,E,33U 621900 5550955,33U XR 21900 50955,,No,No,Yes,No,No,No,No,No,No,,,,,,,,CENTRALLY MANAGED,43718.74056,,
AA7963,KRNOV,Road Border Crossing Point,CZE: Czech Republic,,500702N0174143E,50.11722183,N,17.69528008,E,33U 692680 5555142,33U XR 92680 55143,,No,No,Yes,No,No,No,No,No,No,,,,,,,,CENTRALLY MANAGED,43718.74056,,
AA7976,LANZHOT,Road Border Crossing Point,CZE: Czech Republic,,484128N0165917E,48.69111252,N,16.98805809,E,33U 646304 5395025,33U XP 46305 95026,,No,No,Yes,No,No,No,No,No,No,,,,,,,,CENTRALLY MANAGED,43718.74056,,
AA7989,LISKOVA,Road Border Crossing Point,CZE: Czech Republic,,492506N0124257E,49.41833496,N,12.71583462,E,33U 334340 5476470,33U UQ 34341 76470,,No,No,Yes,No,No,No,No,No,No,,,,,,,,CENTRALLY MANAGED,43718.74056,,
AA8067,POSTORNA,Road Border Crossing Point,CZE: Czech Republic,,484302N0165009E,48.71722412,N,16.8358345,E,33U 635033 5397647,33U XP 35033 97647,,No,No,Yes,No,No,No,No,No,No,,,,,,,,CENTRALLY MANAGED,43718.74056,,
AA8117,STARY HROZENKOV,Road Border Crossing Point,CZE: Czech Republic,,485716N0175346E,48.95444489,N,17.89611244,E,33U 712009 5426434,33U YQ 12010 26434,,No,No,Yes,No,No,No,No,No,No,,,,,,,,CENTRALLY MANAGED,43718.74056,,
AA8128,STRAZNY,Road Border Crossing Point,CZE: Czech Republic,,485253N0134224E,48.88138962,N,13.7066679,E,33U 405179 5415076,33U VQ 05179 15077,,No,No,Yes,No,No,No,No,No,No,,,,,,,,CENTRALLY MANAGED,43718.74056,,
AA8136,SUDICE,Road Border Crossing Point,CZE: Czech Republic,,500200N0180427E,50.03333282,N,18.07416725,E,34U 290474 5546438,34U BA 90475 46439,,No,No,Yes,No,No,No,No,No,No,,,,,,,,CENTRALLY MANAGED,43718.74056,,
AA8170,VOJTANOV,Rail Border Crossing Point,CZE: Czech Republic,,501016N0121935E,50.17111206,N,12.32638931,E,33U 309083 5561077,33U UR 09083 61078,,No,No,No,No,Yes,No,No,No,No,,,,,,,,CENTRALLY MANAGED,43718.74056,,
AA8191,ZELEZNA RUDA,Road Border Crossing Point,CZE: Czech Republic,,490725N0131225E,49.12361145,N,13.20694447,E,33U 369179 5442745,33U UQ 69179 42745,,No,No,Yes,No,No,No,No,No,No,,,,,,,,CENTRALLY MANAGED,43718.74056,,
AA8194,ZNOJMO,Rail Border Crossing Point,CZE: Czech Republic,,485111N0160336E,48.85305786,N,16.05999947,E,33U 577758 5411662,33U WQ 77758 11663,,No,No,No,No,Yes,No,No,No,No,,,,,,,,CENTRALLY MANAGED,43718.74056,,
AA8556,BCP Rucava,Road Border Crossing Point,LVA: Latvia,,560446N0210743E,56.07944489,N,21.12861061,E,34V 508004 6214929,34V EH 08005 14929,,No,No,Yes,No,No,No,No,No,No,,,,,,,,CENTRALLY MANAGED,43718.74056,,
AA8557,BCP Meitene,Rail Border Crossing Point,LVA: Latvia,,562158N0233948E,56.36611176,N,23.66333389,E,34V 664509 6250012,34V FH 64510 50012,,No,No,No,No,Yes,No,No,No,No,,,,,,,,CENTRALLY MANAGED,43718.74056,,
AA8558,BCP Grenctale,Road Border Crossing Point,LVA: Latvia,,561745N0242008E,56.29583359,N,24.33555603,E,35V 335118 6242196,35V LC 35119 42196,,No,No,Yes,No,No,No,No,No,No,,,,,,,,CENTRALLY MANAGED,43718.74056,,
AA8581,BJORNFJELL BCP,Road Border Crossing Point,NOR: Norway,,682552N0180623E,68.4311142,N,18.10639,E,34W 381324 7593718,34W CA 81324 93718,,No,No,Yes,No,Yes,No,No,No,No,,,,,,,,CENTRALLY MANAGED,43718.74056,,
AA8595,HELLIGSKOGEN BCP,Road Border Crossing Point,NOR: Norway,Troms,690709N0204437E,69.11916351,N,20.74361229,E,34W 489801 7667671,34W DB 89801 67671,,No,No,Yes,No,No,No,No,No,No,,,,,,,,CENTRALLY MANAGED,43718.74056,,
AA8926,Z†hony RLBC,Rail Border Crossing Point,HUN: Hungary,,482407N0221152E,48.40194702,N,22.1977787,E,34U 588651 5361669,34U EU 88652 61669,,No,No,Yes,No,Yes,No,No,No,No,,,,,,,,CENTRALLY MANAGED,43718.74056,,
AA8990,Eperjeske RLBC,Rail Border Crossing Point,HUN: Hungary,,482248N0221556E,48.38000107,N,22.26555634,E,34U 593708 5359310,34U EU 93709 59311,,No,No,Yes,No,Yes,No,No,No,No,,,,,,,,CENTRALLY MANAGED,43718.74056,,
AA8991,Z†hony RDBC,Road Border Crossing Point,HUN: Hungary,,482451N0221105E,48.41416931,N,22.1847229,E,34U 587664 5363012,34U EU 87665 63013,,No,No,Yes,No,No,No,No,No,No,,,,,,,,CENTRALLY MANAGED,43718.74056,,
AA8993,Kelebia RLBC,Rail Border Crossing Point,HUN: Hungary,,461105N0193723E,46.1847229,N,19.62305641,E,34T 393735 5115493,34T CS 93736 15493,,No,No,Yes,No,Yes,No,No,No,No,,,,,,,,CENTRALLY MANAGED,43718.74056,,
AA8994,Tompa RDBC,Road Border Crossing Point,HUN: Hungary,,461037N0193451E,46.17694473,N,19.58083534,E,34T 390461 5114686,34T CS 90462 14686,,No,No,Yes,No,No,No,No,No,No,,,,,,,,CENTRALLY MANAGED,43718.74056,,
AA8996,Rîszke RLBC,Rail Border Crossing Point,HUN: Hungary,,461109N0200100E,46.18583298,N,20.01666641,E,34T 424113 5115165,34T DS 24114 15165,,No,No,Yes,No,Yes,No,No,No,No,,,,,,,,CENTRALLY MANAGED,43718.74056,,
AA8997,Rîszke RDBC,Road Border Crossing Point,HUN: Hungary,,461037N0195857E,46.17694473,N,19.98250198,E,34T 421464 5114210,34T DS 21464 14211,,No,No,Yes,No,No,No,No,No,No,,,,,,,,CENTRALLY MANAGED,43718.74056,,
AA8998,Barcs RDBC,Road Border Crossing Point,HUN: Hungary,,455701N0172716E,45.95027924,N,17.45444489,E,33T 690221 5091452,33T XL 90222 91452,,No,No,Yes,No,No,No,No,No,No,,,,,,,,CENTRALLY MANAGED,43718.74056,,
AA8999,Berzence RDBC,Road Border Crossing Point,HUN: Hungary,,461108N0170517E,46.1855545,N,17.08805656,E,33T 661140 5116783,33T XM 61140 16784,,No,No,Yes,No,No,No,No,No,No,,,,,,,,CENTRALLY MANAGED,43718.74056,,
AA9001,Dr†vaszabolcs RDBC,Road Border Crossing Point,HUN: Hungary,,454657N0181150E,45.78250122,N,18.19722176,E,34T 282127 5073702,34T BR 82128 73703,,No,No,Yes,No,No,No,No,No,No,,,,,,,,CENTRALLY MANAGED,43718.74056,,
AA9002,GyÇkÇnyes RLBC,Rail Border Crossing Point,HUN: Hungary,,461449N0165713E,46.24694443,N,16.95361328,E,33T 650597 5123340,33T XM 50597 23340,,No,No,Yes,No,Yes,No,No,No,No,,,,,,,,CENTRALLY MANAGED,43718.74056,,
AA9003,Letenye RDBC,Road Border Crossing Point,HUN: Hungary,,462506N0164213E,46.41833496,N,16.70361328,E,33T 630915 5141938,33T XM 30916 41939,,No,No,Yes,No,No,No,No,No,No,,,,,,,,CENTRALLY MANAGED,43718.74056,,
AA9004,Magyarb¢ly RLBC,Rail Border Crossing Point,HUN: Hungary,,455015N0182833E,45.83750153,N,18.47583389,E,34T 303978 5079091,34T CR 03978 79091,,No,No,Yes,No,Yes,No,No,No,No,,,,,,,,CENTRALLY MANAGED,43718.74056,,
AA9005,Murakereszt£r RLBC,Rail Border Crossing Point,HUN: Hungary,,462246N0165600E,46.37944412,N,16.93333435,E,33T 648674 5138023,33T XM 48675 38024,,No,No,Yes,No,Yes,No,No,No,No,,,,,,,,CENTRALLY MANAGED,43718.74056,,
AA9006,Udvar RDBC,Road Border Crossing Point,HUN: Hungary,,455340N0183916E,45.89444733,N,18.65444565,E,34T 318034 5084994,34T CR 18035 84995,,No,No,Yes,No,No,No,No,No,No,,,,,,,,CENTRALLY MANAGED,43718.74056,,
AA9007,Balassagyarmat RDBC,Road Border Crossing Point,HUN: Hungary,,480500N0191835E,48.08333206,N,19.3097229,E,34U 374117 5326944,34U CU 74118 26944,,No,No,Yes,No,No,No,No,No,No,,,,,,,,CENTRALLY MANAGED,43718.74056,,
AA9008,B†nrÇve RLBC,Rail Border Crossing Point,HUN: Hungary,,481756N0202142E,48.29888916,N,20.36166763,E,34U 452659 5349718,34U DU 52659 49718,,No,No,Yes,No,Yes,No,No,No,No,,,,,,,,CENTRALLY MANAGED,43718.74056,,
AA9009,B†nrÇve RDBC,Road Border Crossing Point,HUN: Hungary,,481850N0202121E,48.31388855,N,20.35583496,E,34U 452240 5351389,34U DU 52240 51389,,No,No,Yes,No,No,No,No,No,No,,,,,,,,CENTRALLY MANAGED,43718.74056,,
AA9010,HidasnÇmeti RLBC,Rail Border Crossing Point,HUN: Hungary,,483047N0211453E,48.51305771,N,21.24805641,E,34U 518319 5373356,34U EU 18320 73357,,No,No,Yes,No,Yes,No,No,No,No,,,,,,,,CENTRALLY MANAGED,43718.74056,,
AA9011,Kom†rom RLBC,Rail Border Crossing Point,HUN: Hungary,,474425N0180744E,47.74028015,N,18.12888908,E,34T 284763 5291426,34T BT 84764 91427,,No,No,Yes,No,Yes,No,No,No,No,,,,,,,,CENTRALLY MANAGED,43718.74056,,
AA9012,Kom†rom RDBC,Road Border Crossing Point,HUN: Hungary,,474450N0180716E,47.7472229,N,18.12111092,E,34T 284209 5292220,34T BT 84209 92220,,No,No,Yes,No,No,No,No,No,No,,,,,,,MLC 20,CENTRALLY MANAGED,43718.74056,,
AA9014,Parassapuszta RDBC,Road Border Crossing Point,HUN: Hungary,,480431N0185637E,48.07527924,N,18.94361305,E,34U 346829 5326712,34U CU 46829 26713,,No,No,Yes,No,No,No,No,No,No,,,,,,,,CENTRALLY MANAGED,43718.74056,,
AA9015,Rajka RLBC,Rail Border Crossing Point,HUN: Hungary,,480023N0171108E,48.00638962,N,17.18555641,E,33U 663008 5319321,33U XP 63008 19322,,No,No,Yes,No,Yes,No,No,No,No,,,,,,,,CENTRALLY MANAGED,43718.74056,,
AA9016,Rajka RDBC,Road Border Crossing Point,HUN: Hungary,,480057N0171120E,48.01583481,N,17.18888855,E,33U 663227 5320378,33U XP 63227 20378,,No,No,Yes,No,No,No,No,No,No,,,,,,,,CENTRALLY MANAGED,43718.74056,,
AA9017,Hegyeshalom RLBC,Rail Border Crossing Point,HUN: Hungary,,475532N0170729E,47.92555618,N,17.12472343,E,33T 658718 5310211,33T XP 58719 10211,,No,No,Yes,No,Yes,No,No,No,No,,,,,,,,CENTRALLY MANAGED,43718.74056,,
AA9018,Hegyeshalom RDBC,Road Border Crossing Point,HUN: Hungary,,475539N0170556E,47.92750168,N,17.0988884,E,33T 656783 5310374,33T XP 56783 10374,,No,No,Yes,No,No,No,No,No,No,,,,,,,,CENTRALLY MANAGED,43718.74056,,
AA9019,S†toralja£jhely RLBC,Rail Border Crossing Point,HUN: Hungary,,482308N0213954E,48.38555527,N,21.66500092,E,34U 549235 5359368,34U EU 49235 59368,,No,No,Yes,No,Yes,No,No,No,No,,,,,,,,CENTRALLY MANAGED,43718.74056,,
AA9020,S†toralja£jhely RDBC,Road Border Crossing Point,HUN: Hungary,,482402N0214040E,48.40055466,N,21.67777824,E,34U 550166 5361043,34U EU 50166 61044,,No,No,Yes,No,No,No,No,No,No,,,,,,,,CENTRALLY MANAGED,43718.74056,,
AA9021,Somosk?£jfalu RLBC,Rail Border Crossing Point,HUN: Hungary,,480925N0194926E,48.15694427,N,19.82389069,E,34U 412534 5334412,34U DU 12535 34413,,No,No,Yes,No,Yes,No,No,No,No,,,,,,,,CENTRALLY MANAGED,43718.74056,,
AA9022,Salg¢tarj†n RDBC,Road Border Crossing Point,HUN: Hungary,,481003N0195303E,48.16749954,N,19.88416862,E,34U 417034 5335519,34U DU 17034 35519,,No,No,Yes,No,No,No,No,No,No,,,,,,,,CENTRALLY MANAGED,43718.74056,,
AA9023,Szob RLBC,Rail Border Crossing Point,HUN: Hungary,,474902N0185253E,47.8172226,N,18.88139153,E,34T 341407 5298158,34T CT 41407 98159,,No,No,Yes,No,Yes,No,No,No,No,,,,,,,,CENTRALLY MANAGED,43718.74056,,
AA9024,TornyosnÇmeti RDBC,Rail Border Crossing Point,HUN: Hungary,,483152N0211553E,48.53111267,N,21.26472282,E,34U 519543 5375367,34U EU 19544 75368,,No,No,Yes,No,No,No,No,No,No,,,,,,,,CENTRALLY MANAGED,43718.74056,,
AA9025,V†mosszabadi RDBC,Road Border Crossing Point,HUN: Hungary,,474756N0173843E,47.79888916,N,17.64527893,E,33T 698084 5297336,33T XN 98085 97337,,No,No,Yes,No,No,No,No,No,No,,,,,,,,CENTRALLY MANAGED,43718.74056,,
AA9026,?rt†nd RDBC,Road Border Crossing Point,HUN: Hungary,,470709N0214759E,47.11916733,N,21.79972458,E,34T 560663 5218717,34T ET 60664 18717,,No,No,Yes,No,No,No,No,No,No,,,,,,,,CENTRALLY MANAGED,43718.74056,,
AA9027,Biharkeresztes RLBC,Rail Border Crossing Point,HUN: Hungary,,470807N0214431E,47.13527679,N,21.74194527,E,34T 556264 5220464,34T ET 56264 20464,,No,No,Yes,No,Yes,No,No,No,No,,,,,,,,CENTRALLY MANAGED,43718.74056,,
AA9028,?gerd?major RLBC,Rail Border Crossing Point,HUN: Hungary,,474812N0222818E,47.80333328,N,22.47166824,E,34T 610195 5295490,34T FT 10195 95490,,No,No,Yes,No,Yes,No,No,No,No,,,,,,,,CENTRALLY MANAGED,43718.74056,,
AA9029,Csengersima RDBC,Road Border Crossing Point,HUN: Hungary,,475351N0224839E,47.8975029,N,22.81083488,E,34T 635345 5306494,34T FU 35345 06495,,No,No,Yes,No,No,No,No,No,No,,,,,,,,CENTRALLY MANAGED,43718.74056,,
AA9030,Ny°r†br†ny RLBC,Rail Border Crossing Point,HUN: Hungary,,473141N0220043E,47.5280571,N,22.01194382,E,34T 576172 5264343,34T ET 76172 64344,,No,No,Yes,No,Yes,No,No,No,No,,,,,,,,CENTRALLY MANAGED,43718.74056,,
AA9031,Lîkîsh†za RLBC,Rail Border Crossing Point,HUN: Hungary,,462536N0211449E,46.42666626,N,21.24694443,E,34T 518973 5141484,34T ES 18974 41485,,No,No,Yes,No,Yes,No,No,No,No,,,,,,,,CENTRALLY MANAGED,43718.74056,,
AA9032,Gyula RDBC,Road Border Crossing Point,HUN: Hungary,,463727N0211953E,46.6241684,N,21.33139038,E,34T 525370 5163453,34T ES 25370 63454,,No,No,Yes,No,No,No,No,No,No,,,,,,,,CENTRALLY MANAGED,43718.74056,,
AA9033,Nagylak RDBC,Road Border Crossing Point,HUN: Hungary,,461020N0204309E,46.17222214,N,20.71916771,E,34T 478322 5113221,34T DS 78322 13221,,No,No,Yes,No,No,No,No,No,No,,,,,,,,CENTRALLY MANAGED,43718.74056,,
AA9034,Kîtegy†n RLBC,Rail Border Crossing Point,HUN: Hungary,,464527N0212909E,46.75749969,N,21.48583412,E,34T 537102 5178331,34T ES 37102 78331,,No,No,Yes,No,Yes,No,No,No,No,,,,,,,,CENTRALLY MANAGED,43718.74056,,
AA9035,RÇdics RDBC,Road Border Crossing Point,HUN: Hungary,,463536N0162724E,46.5933342,N,16.45666695,E,33T 611580 5161004,33T XM 11581 61005,,No,No,Yes,No,No,No,No,No,No,,,,,,,,CENTRALLY MANAGED,43718.74056,,
AA9036,Tornyiszentmikl¢s RDBC,Road Border Crossing Point,HUN: Hungary,,463013N0163146E,46.50361252,N,16.52944565,E,33T 617348 5151140,33T XM 17349 51141,,No,No,Yes,No,No,No,No,No,No,,,,,,,,CENTRALLY MANAGED,43718.74056,,
AA9037,Sopron RDBC,Road Border Crossing Point,HUN: Hungary,,474256N0163250E,47.7155571,N,16.54722404,E,33T 616047 5285845,33T XN 16047 85846,,No,No,Yes,No,No,No,No,No,No,,,,,,,,CENTRALLY MANAGED,43718.74056,,
AA9038,Sopron RLBC,Rail Border Crossing Point,HUN: Hungary,,474136N0163037E,47.69333649,N,16.5102787,E,33T 613324 5283321,33T XN 13325 83321,,No,No,Yes,No,Yes,No,No,No,No,,,,,,,,CENTRALLY MANAGED,43718.74056,,
AA9039,Sopron/GYSEV RLBC,Rail Border Crossing Point,HUN: Hungary,,474210N0163212E,47.70277786,N,16.53666687,E,33T 615284 5284409,33T XN 15284 84410,,No,No,Yes,No,Yes,No,No,No,No,,,,,,,,CENTRALLY MANAGED,43718.74056,,
AA9040,K?szeg RDBC,Road Border Crossing Point,HUN: Hungary,,472434N0162841E,47.40944672,N,16.47805595,E,33T 611507 5251724,33T XN 11508 51725,,No,No,Yes,No,No,No,No,No,No,,,,,,,,CENTRALLY MANAGED,43718.74056,,
AA9041,K¢ph†za RDBC,Road Border Crossing Point,HUN: Hungary,,473659N0163554E,47.61639023,N,16.59833527,E,33T 620108 5274902,33T XN 20108 74902,,No,No,Yes,No,No,No,No,No,No,,,,,,,,CENTRALLY MANAGED,43718.74056,,
AA9042,Szentgotthard RLBC,Rail Border Crossing Point,HUN: Hungary,,465733N0161552E,46.95916748,N,16.26444435,E,33T 596202 5201402,33T WN 96203 01402,,No,No,Yes,No,Yes,No,No,No,No,,,,,,,,CENTRALLY MANAGED,43718.74056,,
AA9043,Szentgotth†rd RDBC,Road Border Crossing Point,HUN: Hungary,,465906N0161617E,46.98500061,N,16.27138901,E,33T 596684 5204281,33T WN 96685 04282,,No,No,Yes,No,No,No,No,No,No,,,,,,,,CENTRALLY MANAGED,43718.74056,,
AA9044,Bucsu RDBC,Road Border Crossing Point,HUN: Hungary,,471347N0162617E,47.22972107,N,16.43805695,E,33T 608858 5231695,33T XN 08859 31696,,No,No,Yes,No,No,No,No,No,No,,,,,,,,CENTRALLY MANAGED,43718.74056,,
AA9045,Fert?£jlak RLBC,Rail Border Crossing Point,HUN: Hungary,,474101N0165309E,47.68361282,N,16.88583565,E,33T 641530 5282858,33T XN 41530 82858,,No,No,Yes,No,Yes,No,No,No,No,,,,,,,,CENTRALLY MANAGED,43718.74056,,
AA9055,Esztergom RDBC,Road Border Crossing Point,HUN: Hungary,,474800N0184312E,47.80000305,N,18.72000122,E,34T 329270 5296588,34T CT 29270 96589,,No,No,Yes,No,No,No,No,No,No,,,,,,,,CENTRALLY MANAGED,43718.74056,,
AA9133,SVK-UKR NEMECKE BXP,Road Border Crossing Point,SVK: Slovakia,,483925N0221553E,48.65694427,N,22.26472282,E,34U 593137 5390092,34U EU 93138 90093,,No,No,Yes,No,No,No,No,No,No,,,,,,,,CENTRALLY MANAGED,43718.74056,,
AA9134,SVK-HUN MILHOST BXP,Road Border Crossing Point,SVK: Slovakia,,483156N0211515E,48.53222275,N,21.25416756,E,34U 518763 5375488,34U EU 18764 75488,,No,No,Yes,No,No,No,No,No,No,,,,,,,,CENTRALLY MANAGED,43718.74056,,
AA9135,SVK-HUN SAHY BXP,Road Border Crossing Point,SVK: Slovakia,,480328N0185753E,48.0577774,N,18.96472359,E,34U 348350 5324725,34U CU 48350 24726,,No,No,Yes,No,No,No,No,No,No,,,,,,,,CENTRALLY MANAGED,43718.74056,,
AA9137,SVK-HUN RUSOVCE BXP,Road Border Crossing Point,SVK: Slovakia,,480059N0171023E,48.01638794,N,17.17305565,E,33U 662044 5320406,33U XP 62045 20407,,No,No,Yes,No,No,No,No,No,No,,,,,,,,CENTRALLY MANAGED,43718.74056,,
AA9138,SVK-AUT JAROVCE BXP,Road Border Crossing Point,SVK: Slovakia,,480411N0170434E,48.06972122,N,17.07611084,E,33U 654656 5326134,33U XP 54656 26135,,No,No,Yes,No,No,No,No,No,No,,,,,,,,CENTRALLY MANAGED,43718.74056,,
AA9141,SVK-CZE KUTY BXP,Road Border Crossing Point,SVK: Slovakia,,484045N0165911E,48.6791687,N,16.98639107,E,33U 646216 5393695,33U XP 46217 93695,,No,No,Yes,No,Yes,No,No,No,No,,,,,,,,CENTRALLY MANAGED,43718.74056,,
AA9142,SVK-CZE DRIETOMA BXP,Road Border Crossing Point,SVK: Slovakia,,485703N0175357E,48.95083618,N,17.89916801,E,33U 712248 5426041,33U YQ 12249 26041,,No,No,Yes,No,No,No,No,No,No,,,,,,,,CENTRALLY MANAGED,43718.74056,,
AA9144,SVK-POL SKALITE BXP,Rail Border Crossing Point,SVK: Slovakia,,493027N0185741E,49.50749969,N,18.96139145,E,34U 352416 5485871,34U CV 52417 85872,,No,No,Yes,No,Yes,No,No,No,No,,,,,,,,CENTRALLY MANAGED,43718.74056,,
AA9145,SVK-POL TRSTENA BXP,Road Border Crossing Point,SVK: Slovakia,,492425N0193928E,49.40694427,N,19.65777969,E,34U 402630 5473561,34U DV 02630 73562,,No,No,Yes,No,No,No,No,No,No,,,,,,,,CENTRALLY MANAGED,43718.74056,,
AA9223,IKLA / AINA?I BCP,Road Border Crossing Point,EST: Estonia,,575234N0242320E,57.87611389,N,24.38888931,E,35V 345149 6417906,35V LE 45150 17906,,No,No,Yes,No,No,No,No,No,No,,,,,,,,CENTRALLY MANAGED,43718.74056,,
AA9224,VALGA / VALKA BCP,Rail Border Crossing Point,EST: Estonia,,574633N0260149E,57.77583313,N,26.03027725,E,35V 442323 6404166,35V ME 42324 04166,,No,No,Yes,No,Yes,No,No,No,No,,,,,,,,CENTRALLY MANAGED,43718.74056,,
AA9225,KOIDULA BCP,Rail Border Crossing Point,EST: Estonia,,575013N0273641E,57.83694458,N,27.61139107,E,35V 536302 6410720,35V NE 36303 10721,,No,No,Yes,No,Yes,No,No,No,No,,,,,,,,CENTRALLY MANAGED,43718.74056,,
AA9226,NARVA BCP,Rail Border Crossing Point,EST: Estonia,,592234N0281148E,59.37611008,N,28.19666672,E,35V 567997 6582544,35V NF 67998 82545,,No,No,Yes,No,Yes,No,No,No,No,,,,,,,,CENTRALLY MANAGED,43718.74056,,
AA9268,GRONOWO RDBC,Road Border Crossing Point,POL: Poland,,542546N0195242E,54.42944717,N,19.87833595,E,34U 427235 6031882,34U DF 27236 31883,,No,No,Yes,No,No,No,No,No,No,,,,,,,,CENTRALLY MANAGED,43718.74056,,
AA9269,GRZECHOTKI RDBC,Road Border Crossing Point,POL: Poland,,542440N0200354E,54.41111374,N,20.06500053,E,34U 439317 6029666,34U DF 39318 29666,,No,No,Yes,No,No,No,No,No,No,,,,,,,,CENTRALLY MANAGED,43718.74056,,
AA9270,BEZLEDY RDBC,Road Border Crossing Point,POL: Poland,,541929N0204354E,54.32472229,N,20.73166847,E,34U 482548 6019684,34U DF 82548 19685,,No,No,Yes,No,No,No,No,No,No,,,,,,,,CENTRALLY MANAGED,43718.74056,,
AA9271,GO?DAP RDBC,Road Border Crossing Point,POL: Poland,,541944N0221346E,54.32888794,N,22.2294445,E,34U 579950 6020811,34U EF 79951 20812,,No,No,Yes,No,No,No,No,No,No,,,,,,,,CENTRALLY MANAGED,43718.74056,,
AA9272,KU?NICA RDBC,Road Border Crossing Point,POL: Poland,,532843N0233841E,53.47861099,N,23.64472389,E,34U 675501 5928770,34U FE 75501 28770,,No,No,Yes,No,No,No,No,No,No,,,,,,,,CENTRALLY MANAGED,43718.74056,,
AA9273,ZUBKI RDBC,Rail Border Crossing Point,POL: Poland,,530126N0234527E,53.02388763,N,23.7575016,E,34U 684934 5878484,34U FD 84935 78484,,No,No,No,No,Yes,No,No,No,No,,,,,,,,CENTRALLY MANAGED,43718.74056,,
AA9274,BOBROWNIKI RDBC,Road Border Crossing Point,POL: Poland,,530217N0235123E,53.03805542,N,23.85639,E,34U 691502 5880319,34U FD 91503 80320,,No,No,Yes,No,No,No,No,No,No,,,,,,,,CENTRALLY MANAGED,43718.74056,,
AA9275,BIALOWIEZA RDBC,Road Border Crossing Point,POL: Poland,,523526N0234716E,52.5905571,N,23.78777885,E,34U 688834 5830375,34U FD 88834 30375,,No,No,Yes,No,No,No,No,No,No,,,,,,,,CENTRALLY MANAGED,43718.74056,,
AA9276,PO?OWCE RDBC,Road Border Crossing Point,POL: Poland,,522224N0231849E,52.37333298,N,23.31361198,E,34U 657495 5805081,34U FD 57495 05082,,No,No,Yes,No,No,No,No,No,No,,,,,,,,CENTRALLY MANAGED,43718.74056,,
AA9277,KUKURYKI RDBC,Road Border Crossing Point,POL: Poland,,520154N0233303E,52.0316658,N,23.55083466,E,34U 674978 5767631,34U FC 74978 67632,,No,No,Yes,No,No,No,No,No,No,,,,,,,,CENTRALLY MANAGED,43718.74056,,
AA9278,TERESPOL RDBC,Road Border Crossing Point,POL: Poland,,515919N0233807E,51.98861313,N,23.6352787,E,34U 680943 5763051,34U FC 80944 63051,,No,No,Yes,No,No,No,No,No,No,,,,,,,,CENTRALLY MANAGED,43718.74056,,
AA9279,S?AWATYCZE RDBC,Road Border Crossing Point,POL: Poland,,514104N0233646E,51.68444443,N,23.61277962,E,34U 680612 5729174,34U FC 80613 29174,,No,No,Yes,No,No,No,No,No,No,,,,,,,,CENTRALLY MANAGED,43718.74056,,
AA9280,DOROHUSK RDBC,Road Border Crossing Point,POL: Poland,,510655N0235338E,51.11527634,N,23.89389038,E,34U 702541 5666627,34U GB 02541 66627,,No,No,Yes,No,No,No,No,No,No,,,,,,,,CENTRALLY MANAGED,43718.74056,,
AA9281,ZOSIN RDBC,Road Border Crossing Point,POL: Poland,,504808N0241625E,50.80222321,N,24.27361107,E,35U 307892 5631374,35U LS 07893 31375,,No,No,Yes,No,No,No,No,No,No,,,,,,,,CENTRALLY MANAGED,43718.74056,,
AA9282,HREBENNE RDBC,Road Border Crossing Point,POL: Poland,,501159N0234545E,50.19972229,N,23.76250076,E,34U 697145 5564489,34U FA 97145 64490,,No,No,Yes,No,No,No,No,No,No,,,,,,,,CENTRALLY MANAGED,43718.74056,,
AA9283,KORCZOWA RDBC,Road Border Crossing Point,POL: Poland,,495147N0231759E,49.86305618,N,23.29972267,E,34U 665274 5525941,34U FA 65275 25941,,No,No,Yes,No,No,No,No,No,No,,,,,,,,CENTRALLY MANAGED,43718.74056,,
AA9284,PRZEMY?L RDBC,Rail Border Crossing Point,POL: Poland,,494150N0225031E,49.69722366,N,22.84194565,E,34U 632830 5506595,34U FA 32830 06596,,No,No,No,No,Yes,No,No,No,No,,,,,,,,CENTRALLY MANAGED,43718.74056,,
AA9285,MEDYKA RDBC,Road Border Crossing Point,POL: Poland,,494212N0230833E,49.70333481,N,23.14249992,E,34U 654483 5507850,34U FA 54484 07850,,No,No,Yes,No,No,No,No,No,No,,,,,,,,CENTRALLY MANAGED,43718.74056,,
AA9286,KROSCIENKO RDBC,Road Border Crossing Point,POL: Poland,,492234N0225429E,49.37611008,N,22.90805817,E,34U 638502 5471018,34U FV 38502 71018,,No,No,Yes,No,No,No,No,No,No,,,,,,,,CENTRALLY MANAGED,43718.74056,,
AA9343,Sea BCP Molas,IWW (Canal/River) Border Crossing Point,LTU: Lithuania,,554226N0210738E,55.70722198,N,21.12722206,E,34U 507994 6173502,34U EG 07994 73502,LTU,No,Yes,No,No,No,No,No,No,No,,,,,,,,CENTRALLY MANAGED,43718.74056,,
AA9344,Sea BCP Pilis,IWW (Canal/River) Border Crossing Point,LTU: Lithuania,,554203N0210742E,55.70083618,N,21.12833405,E,34U 508065 6172791,34U EG 08066 72791,LTU,No,Yes,No,No,No,No,No,No,No,,,,,,,,CENTRALLY MANAGED,43718.74056,,
AA9345,Sea BCP Malku ilanka,IWW (Canal/River) Border Crossing Point,LTU: Lithuania,,554146N0210803E,55.69611359,N,21.13416672,E,34U 508433 6172266,34U EG 08433 72267,LTU,No,Yes,No,No,No,No,No,No,No,,,,,,,,CENTRALLY MANAGED,43718.74056,,
AA9399,Skuodas RDBCP,Road Border Crossing Point,LTU: Lithuania,,561656N0213046E,56.28222275,N,21.51277924,E,34V 531747 6237609,34V EH 31747 37609,LTU,No,No,Yes,No,No,No,No,No,No,,,,,,,LTU - LVA Internal EU Border,CENTRALLY MANAGED,43718.74056,,
AA9400,Butinge RDBCP,Road Border Crossing Point,LTU: Lithuania,,560438N0210738E,56.07722092,N,21.12722206,E,34V 507918 6214681,34V EH 07919 14682,LTU,No,No,Yes,No,No,No,No,No,No,,,,,,,Internal EU Border,CENTRALLY MANAGED,43718.74056,,
AA9401,Buknaiciai RDBCP,Road Border Crossing Point,LTU: Lithuania,,562401N0222105E,56.40028,N,22.35138893,E,34V 583406 6251450,34V EH 83407 51450,LTU,No,No,Yes,No,No,No,No,No,No,,,,,,,LTU - LVA Internal EU Border,CENTRALLY MANAGED,43718.74056,,
AA9402,Kalviai RDBCP,Road Border Crossing Point,LTU: Lithuania,,562158N0234022E,56.36611176,N,23.67277908,E,34V 665092 6250034,34V FH 65093 50035,LTU,No,No,Yes,No,No,No,No,No,No,,,,,,,LTU - LVA Internal EU Border,CENTRALLY MANAGED,43718.74056,,
AA9403,Salociai RDBCP,Road Border Crossing Point,LTU: Lithuania,,561738N0242021E,56.29388809,N,24.33916664,E,35V 335333 6241971,35V LC 35334 41971,,No,No,Yes,No,No,No,No,No,No,,,,,,,LTU - LVA Internal EU Border,CENTRALLY MANAGED,43718.74056,,
AA9404,Germaniskis RDBCP,Road Border Crossing Point,LTU: Lithuania,,562207N0243949E,56.36861038,N,24.66361237,E,35V 355689 6249556,35V LC 55690 49557,LTU,No,No,Yes,No,No,No,No,No,No,,,,,,,LTU - LVA Internal EU Border,CENTRALLY MANAGED,43718.74056,,
AA9405,Suvainiskis RDBCP,Road Border Crossing Point,LTU: Lithuania,,561039N0251425E,56.17750168,N,25.24027824,E,35V 390760 6227228,35V LC 90760 27229,LTU,No,No,Yes,No,No,No,No,No,No,,,,,,,LTU - LVA Internal EU Border,CENTRALLY MANAGED,43718.74056,,
AA9406,Obeliai RDBCP,Road Border Crossing Point,LTU: Lithuania,,560017N0255331E,56.0047226,N,25.89194679,E,35V 430903 6207159,35V MC 30903 07159,LTU,No,No,Yes,No,No,No,No,No,No,,,,,,,LTU - LVA Internal EU Border,CENTRALLY MANAGED,43718.74056,,
AA9407,Smelyne RDBCP,Road Border Crossing Point,LTU: Lithuania,,554441N0261823E,55.74472427,N,26.30638885,E,35U 456456 6177886,35U MB 56457 77886,LTU,No,No,Yes,No,No,No,No,No,No,,,,,,,LTU - LVA Internal EU Border,CENTRALLY MANAGED,43718.74056,,
AA9408,Tverecius RDBCP,Road Border Crossing Point,LTU: Lithuania,,551823N0264956E,55.30638885,N,26.83222389,E,35U 489349 6128899,35U MB 89349 28900,LTU,No,No,Yes,No,No,No,No,No,No,,,,,,,"LTU- Belarus
Local Border Traffic",CENTRALLY MANAGED,43718.74056,,
AA9409,Adutiskis RDBCP,Road Border Crossing Point,LTU: Lithuania,,550927N0263515E,55.15750122,N,26.58750153,E,35U 473716 6112395,35U MB 73717 12396,LTU,No,No,Yes,No,No,No,No,No,No,,,,,,,"LTU - Belarus 
Local Border Traffic",CENTRALLY MANAGED,43718.74056,,
AA9410,Papelekis RDBCP,Road Border Crossing Point,LTU: Lithuania,,550513N0261552E,55.08694458,N,26.26444435,E,35U 453049 6104713,35U MB 53050 04714,LTU,No,No,Yes,No,No,No,No,No,No,,,,,,,LTU - Belarus Local Border Traffic,CENTRALLY MANAGED,43718.74056,,
AA9411,Prienai RDBCP,Road Border Crossing Point,LTU: Lithuania,,545433N0255100E,54.90916824,N,25.85000229,E,35U 426271 6085289,35U MA 26272 85289,LTU,No,No,Yes,No,No,No,No,No,No,,,,,,,"LTU - Belarus
Internal EU Border",CENTRALLY MANAGED,43718.74056,,
AA9412,Lavoriskes RDBCP,Road Border Crossing Point,LTU: Lithuania,,544321N0254516E,54.72249985,N,25.75444603,E,35U 419776 6064624,35U MA 19777 64624,LTU,No,No,Yes,No,No,No,No,No,No,,,,,,,"LTU - Belarus
International EUExternal Border",CENTRALLY MANAGED,43718.74056,,
AA9413,Sumskas RDBCP,Road Border Crossing Point,LTU: Lithuania,,543552N0254506E,54.59777832,N,25.75166893,E,35U 419351 6050750,35U MA 19351 50750,LTU,No,No,Yes,No,No,No,No,No,No,,,,,,,"LTU - Belarus 
Local Border Traffic",CENTRALLY MANAGED,43718.74056,,
AA9414,Medininkai RDBCP,Road Border Crossing Point,LTU: Lithuania,,543214N0254055E,54.53722382,N,25.6819458,E,35U 414720 6044094,35U MA 14721 44095,LTU,No,No,Yes,No,No,No,No,No,No,,,,,,,"LTU - Belarus 
International EU External Border",CENTRALLY MANAGED,43718.74056,,
AA9415,Ureliai RDBCP,Road Border Crossing Point,LTU: Lithuania,,541641N0254337E,54.2780571,N,25.72694588,E,35U 417111 6015206,35U MA 17111 15207,LTU,No,No,Yes,No,No,No,No,No,No,,,,,,,LTU - Belarus Local Border Traffic,CENTRALLY MANAGED,43718.74056,,
AA9416,Norveliskes RDBCP,Road Border Crossing Point,LTU: Lithuania,,540951N0254240E,54.1641655,N,25.71111298,E,35U 415848 6002554,35U MA 15849 02555,LTU,No,No,Yes,No,No,No,No,No,No,,,,,,,LTU - Belarus Local Border Traffic,CENTRALLY MANAGED,43718.74056,,
AA9417,Krakunai RDBCP,Road Border Crossing Point,LTU: Lithuania,,541203N0253445E,54.20083237,N,25.57916832,E,35U 407316 6006798,35U MA 07317 06799,LTu,No,No,Yes,No,No,No,No,No,No,,,,,,,"LTU - Belarjus
Local Border Traffic",CENTRALLY MANAGED,43718.74056,,
AA9418,Salcininkai RDBCP,Road Border Crossing Point,LTU: Lithuania,,541708N0252245E,54.28555679,N,25.37916756,E,35U 394488 6016505,35U LA 94488 16505,LTU,No,No,Yes,No,No,No,No,No,No,,,,,,,"LTU - Belarus
International EU External Border",CENTRALLY MANAGED,43718.74056,,
AA9419,Eisiskes RDBCP,Road Border Crossing Point,LTU: Lithuania,,540900N0250128E,54.15000153,N,25.02444458,E,35U 370977 6002014,35U LA 70977 02014,LTU,No,No,Yes,No,No,No,No,No,No,,,,,,,"LTU - Belarus
Internal EU Border",CENTRALLY MANAGED,43718.74056,,
AA9420,Rakai RDBCP,Road Border Crossing Point,LTU: Lithuania,,540126N0244938E,54.02388763,N,24.82722473,E,35U 357667 5988364,35U LV 57668 88364,LTU,No,No,Yes,No,No,No,No,No,No,,,,,,,"LTU - Belarus
Local Border Traffic",CENTRALLY MANAGED,43718.74056,,
AA9421,Latezeris RDBCP,Road Border Crossing Point,LTU: Lithuania,,535503N0241800E,53.91750336,N,24.30000114,E,35U 322686 5977720,35U LV 22687 77720,LTU,No,No,Yes,No,No,No,No,No,No,,,,,,,"LTU - Belarus
Local Border Traffic",CENTRALLY MANAGED,43718.74056,,
AA9422,Raidardas RBCP,Road Border Crossing Point,LTU: Lithuania,,535651N0235852E,53.94750214,N,23.98111343,E,34U 695629 5981796,34U FE 95629 81797,LTU,No,No,Yes,No,No,No,No,No,No,,,,,,,"LTU - Belarus
International EU External Border",CENTRALLY MANAGED,43718.74056,,
AA9423,Lazdijai RDBCP,Road Border Crossing Point,LTU: Lithuania,,541332N0232206E,54.22555542,N,23.36833382,E,34U 654388 6011207,34U FF 54389 11207,LTU,No,No,Yes,No,No,No,No,No,No,,,,,,,Internal EU Border LTU - POL,CENTRALLY MANAGED,43718.74056,,
AA9424,Kalvarija RDBCP,Road Border Crossing Point,LTU: Lithuania,,541835N0230732E,54.3097229,N,23.12555504,E,34U 638282 6020066,34U FF 38283 20066,LTU,No,No,Yes,No,No,No,No,No,No,,,,,,,Internal EU Border LTU - POL,CENTRALLY MANAGED,43718.74056,,
AA9425,Kybartai RDBCP,Road Border Crossing Point,LTU: Lithuania,,543830N0224458E,54.64166641,N,22.74944687,E,34U 612898 6056323,34U FF 12899 56324,LTU,No,No,Yes,No,No,No,No,No,No,,,,,,,"LTU - Russia (Kaliningrad district)
International EU External Border",CENTRALLY MANAGED,43718.74056,,
AA9426,Ramoniskiai RDBCP,Road Border Crossing Point,LTU: Lithuania,,545721N0224437E,54.95583344,N,22.74361229,E,34U 611652 6091267,34U FF 11653 91268,LTU,No,No,Yes,No,No,No,No,No,No,,,,,,,,CENTRALLY MANAGED,43718.74056,,
AA9427,Panemune RDBCP,Road Border Crossing Point,LTU: Lithuania,,550527N0215459E,55.09083176,N,21.91639137,E,34U 558486 6105282,34U EG 58487 05283,LTU,No,No,Yes,No,No,No,No,No,No,,,,,,,"LTU - Russia (kaliningrad district)
International EU External Border",CENTRALLY MANAGED,43718.74056,,
AA9428,Nida RDBCP,Road Border Crossing Point,LTU: Lithuania,,551852N0205923E,55.3144455,N,20.98972511,E,34U 499347 6129783,34U DG 99348 29783,LTU,No,No,Yes,No,No,No,No,No,No,,,,,,,"LTU - Russia (Kaliningrad district)
International EU External Border",CENTRALLY MANAGED,43718.74056,,
AA9429,Mazeikiai rail station,Rail Border Crossing Point,LTU: Lithuania,N/A,561901N0222016E,56.31694412,N,22.33777809,E,34V 582747 6242159,34V EH 82747 42159,LTU,No,No,No,No,Yes,No,No,No,No,,,,,,,,CENTRALLY MANAGED,43718.74056,Rail: 30 Assets in / day,
AA9430,Rail border crossing point,Rail Border Crossing Point,LTU: Lithuania,,562142N0233953E,56.36166763,N,23.66472435,E,34V 664614 6249521,34V FH 64615 49521,LTU,No,No,No,No,Yes,No,No,No,No,,,,,,,,CENTRALLY MANAGED,43718.74056,,
AA9431,Rokiskis rail station,Rail Border Crossing Point,LTU: Lithuania,,555700N0253828E,55.95000076,N,25.64111328,E,35U 415142 6201348,35U MC 15143 01349,LTU,No,No,No,No,Yes,No,No,No,No,,,,,,,,CENTRALLY MANAGED,43718.74056,Rail: 40 Assets in / day,
AA9432,Turmantas rail station,Rail Border Crossing Point,LTU: Lithuania,,554158N0262755E,55.69944763,N,26.46527863,E,35U 466392 6172758,35U MB 66392 72759,LTU,No,No,No,No,Yes,No,No,No,No,,,,,,,,CENTRALLY MANAGED,43718.74056,Rail: 10 Assets in / day,Turmantas Railway Station usage: Normal storage type: Open
AA9433,Kena rail station,Rail Border Crossing Point,LTU: Lithuania,,543904N0253816E,54.6511116,N,25.63777924,E,35U 412108 6056820,35U MA 12109 56821,LTU,No,No,No,No,Yes,No,No,No,No,,,,,,,,CENTRALLY MANAGED,43718.74056,,1 usage: Normal storage type: Open
AA9434,Rail border crossing point Stasylos,Rail Border Crossing Point,LTU: Lithuania,,541644N0252111E,54.2788887,N,25.35305595,E,35U 392771 6015803,35U LA 92771 15803,LTU,No,No,No,No,Yes,No,No,No,No,,,,,,,Rail BCP ,CENTRALLY MANAGED,43718.74056,,
AA9435,Mockava rail station,Rail Border Crossing Point,LTU: Lithuania,,541938N0231742E,54.32722473,N,23.29500008,E,34U 649241 6022358,34U FF 49241 22358,LTU,No,No,No,No,Yes,No,No,No,No,,,,,,,,CENTRALLY MANAGED,43718.74056,Rail: 30 Assets in / day,
AA9436,Rail border crossing point,Rail Border Crossing Point,LTU: Lithuania,,543834N0224501E,54.6427803,N,22.75027847,E,34U 612949 6056448,34U FF 12949 56448,LTU,No,No,No,No,Yes,No,No,No,No,,,,,,,,CENTRALLY MANAGED,43718.74056,,1 usage: Normal storage type: Covered
AA9437,Kybartai rail sattion,Rail Border Crossing Point,LTU: Lithuania,,543754N0224421E,54.63166809,N,22.73916817,E,34U 612263 6055194,34U FF 12263 55195,LTU,No,No,No,No,Yes,No,No,No,No,,,,,,,,CENTRALLY MANAGED,43718.74056,Rail: 20 Assets in / day,1 usage: Normal storage type: Covered
AA9438,Pagegiai rail station,Rail Border Crossing Point,LTU: Lithuania,,550817N0215436E,55.13805771,N,21.91000175,E,34U 558010 6110532,34U EG 58010 10532,LTU,No,No,No,No,Yes,No,No,No,No,,,,,,,,CENTRALLY MANAGED,43718.74056,Rail: 16 Assets in / day,
BS0011,BEREGSURANY RBCP,Road Border Crossing Point,HUN: Hungary,N/A,480954N0223422E,48.16500092,N,22.5727787,E,34U 616945 5335835,34U FU 16946 35836,,No,No,Yes,No,No,No,No,,No,,,SFGPI----------,,,,Created for exercise/planning purposes,jfcbs.ada@ais,45090.33346,,
CZ0097,BRECLAV RLBC,Rail Border Crossing Point,CZE: Czech Republic,,484245N0165206E,48.71250153,N,16.86833572,E,,,,No,No,Yes,No,Yes,No,Yes,No,No,,,,,NATO UNCLASSIFIED,PFP,,CENTRALLY MANAGED,44946.3459,,Stojanka usage: Parking type: Open
CZ0098,POMEZI nad OHRI RDBC,Road Border Crossing Point,CZE: Czech Republic,,500512N0121515E,50.08666611,N,12.25416756,E,,,,No,No,Yes,No,No,No,Yes,No,No,,,,,NATO UNCLASSIFIED,PFP,,CENTRALLY MANAGED,44946.3459,,
CZ0099,ROZVADOV RDBC,Road Border Crossing Point,CZE: Czech Republic,,493833N0123119E,49.64250183,N,12.52194595,E,,,,No,No,Yes,No,No,No,Yes,No,No,,,,,NATO UNCLASSIFIED,PFP,,CENTRALLY MANAGED,44946.34591,,
CZ0100,FOLMAVA RDBC,Road Border Crossing Point,CZE: Czech Republic,,492027N0125100E,49.34083557,N,12.85000134,E,,,,No,No,Yes,No,No,No,Yes,No,No,,,,,NATO UNCLASSIFIED,PFP,,CENTRALLY MANAGED,44946.34591,,CH-1 usage: Normal storage type: Open
CZ0101,CHOTEBUZ RDBC,Road Border Crossing Point,CZE: Czech Republic,,494548N0183647E,49.76333618,N,18.61305618,E,,,,No,No,Yes,No,No,No,Yes,No,No,,,,,NATO UNCLASSIFIED,PFP,,CENTRALLY MANAGED,44946.34591,,JH-1 usage: Normal storage type: Open
CZ0102,NACHOD RDBC,Road Border Crossing Point,CZE: Czech Republic,,502547N0161151E,50.42972183,N,16.19750023,E,,,,No,No,Yes,No,No,No,Yes,No,No,,,,,NATO UNCLASSIFIED,PFP,,CENTRALLY MANAGED,44946.34591,,"JINCE 1 usage: Parking type: Open
JINCE 2 usage: Parking type: Open"
CZ0103,HARRACHOV RDBC,Road Border Crossing Point,CZE: Czech Republic,,504822N0152531E,50.8061142,N,15.42527866,E,,,,No,No,Yes,No,No,No,Yes,No,No,,,,,NATO UNCLASSIFIED,PFP,,CENTRALLY MANAGED,44946.34591,,KLATOVY usage: Parking type: Open
CZ0104,CESKE VELENICE RDBC,Road Border Crossing Point,CZE: Czech Republic,,484631N0145851E,48.77528,N,14.98083496,E,,,,No,No,Yes,No,No,No,Yes,No,No,,,,,NATO UNCLASSIFIED,PFP,,CENTRALLY MANAGED,44946.34591,,"L1 usage: Parking type: Open
L2 usage: Parking type: Open
L3 usage: Explosives storage type: Covered"
CZ0105,MIKULOV RDBC,Road Border Crossing Point,CZE: Czech Republic,,484709N0163819E,48.78583527,N,16.63861275,E,,,,No,No,Yes,No,No,No,Yes,No,No,,,,,NATO UNCLASSIFIED,PFP,,CENTRALLY MANAGED,44946.34591,,"Hall usage: Normal storage type: Shed
Parking usage: Normal storage type: Open
Shelter usage: Normal storage type: Covered"
CZ0106,CHEB RLBC,Rail Border Crossing Point,CZE: Czech Republic,,500522N0121522E,50.08944321,N,12.2561121,E,,,,No,No,Yes,No,Yes,No,Yes,No,No,,,,,NATO UNCLASSIFIED,PFP,,CENTRALLY MANAGED,44946.34591,,P1 usage: Parking type: Open
CZ0107,LICHKOV RLBC,Rail Border Crossing Point,CZE: Czech Republic,,500555N0164128E,50.09860992,N,16.69111252,E,,,,No,No,Yes,No,Yes,No,Yes,No,No,,,,,NATO UNCLASSIFIED,PFP,,CENTRALLY MANAGED,44946.34591,,Parking zone usage: Parking type: Open
CZ0108,BOHUMIN RDBC,Road Border Crossing Point,CZE: Czech Republic,,495500N0181923E,49.91666794,N,18.32305527,E,,,,No,No,Yes,No,No,No,Yes,No,No,,,,,NATO UNCLASSIFIED,PFP,,CENTRALLY MANAGED,44946.34591,,TP1 usage: Parking type: Open
CZ0109,BOHUMIN-CHALUPKI RLBC,Rail Border Crossing Point,CZE: Czech Republic,,495459N0181921E,49.91638947,N,18.32250023,E,,,,No,No,Yes,No,Yes,No,Yes,No,No,,,,,NATO UNCLASSIFIED,PFP,,CENTRALLY MANAGED,44946.34591,,
CZ0110,CESKA KUBICE RLBC,Rail Border Crossing Point,CZE: Czech Republic,,491959N0125246E,49.3330574,N,12.87944603,E,,,,No,No,Yes,No,Yes,No,Yes,No,No,,,,,NATO UNCLASSIFIED,PFP,,CENTRALLY MANAGED,44946.34591,,T-1 usage: Normal storage type: Open
CZ0111,CESKE VELENICE RLBC,Rail Border Crossing Point,CZE: Czech Republic,,484552N0145805E,48.76444626,N,14.96805763,E,,,,No,No,Yes,No,Yes,No,Yes,No,No,,,,,NATO UNCLASSIFIED,PFP,,CENTRALLY MANAGED,44946.34591,,Z-1 usage: Normal storage type: Covered
CZ0112,CESKY TESIN RDBC,Road Border Crossing Point,CZE: Czech Republic,,494458N0183736E,49.74944687,N,18.62666702,E,,,,No,No,Yes,No,No,No,Yes,No,No,,,,,NATO UNCLASSIFIED,PFP,,CENTRALLY MANAGED,44946.34591,,HELIPAD usage: Parking type: Open
CZ0113,CESKY TESIN RLBC,Rail Border Crossing Point,CZE: Czech Republic,,494513N0183712E,49.75361252,N,18.62000084,E,,,,No,No,Yes,No,Yes,No,Yes,No,No,,,,,NATO UNCLASSIFIED,PFP,,CENTRALLY MANAGED,44946.34591,,"A311 B usage: Normal storage type: Covered
A311 P usage: Parking type: Open
JK usage: Parking type: Open"
CZ0114,CINOVEC RDBC,Road Border Crossing Point,CZE: Czech Republic,,504407N0134527E,50.73527908,N,13.7575016,E,,,,No,No,Yes,No,No,No,Yes,No,No,,,,,NATO UNCLASSIFIED,PFP,,CENTRALLY MANAGED,44946.34591,,
CZ0115,DECIN-DOLNI ZLEB RLBC,Rail Border Crossing Point,CZE: Czech Republic,,505157N0141334E,50.86583328,N,14.22611141,E,,,,No,No,Yes,No,Yes,No,Yes,No,No,,,,,NATO UNCLASSIFIED,PFP,,CENTRALLY MANAGED,44946.34591,,
CZ0116,DOLNI DVORISTE RDBC,Road Border Crossing Point,CZE: Czech Republic,,483841N0142715E,48.64472198,N,14.45416737,E,,,,No,No,Yes,No,No,No,Yes,No,No,,,,,NATO UNCLASSIFIED,PFP,,CENTRALLY MANAGED,44946.34591,,
CZ0117,HABARTICE RDBC,Road Border Crossing Point,CZE: Czech Republic,,510117N0150349E,51.02138901,N,15.06361103,E,,,,No,No,Yes,No,No,No,Yes,No,No,,,,,NATO UNCLASSIFIED,PFP,,CENTRALLY MANAGED,44946.34591,,
CZ0118,HALAMKY RDBC,Road Border Crossing Point,CZE: Czech Republic,,484920N0145804E,48.82222366,N,14.96778011,E,,,,No,No,Yes,No,No,No,Yes,No,No,,,,,NATO UNCLASSIFIED,PFP,,CENTRALLY MANAGED,44946.34591,,
CZ0119,HORNI DVORISTE RLBC,Rail Border Crossing Point,CZE: Czech Republic,,483558N0142603E,48.59944534,N,14.43416786,E,,,,No,No,Yes,No,Yes,No,Yes,No,No,,,,,NATO UNCLASSIFIED,PFP,,CENTRALLY MANAGED,44946.34591,,
CZ0120,HORNI LIDEC RLBC,Rail Border Crossing Point,CZE: Czech Republic,,491048N0180751E,49.18000031,N,18.13083267,E,,,,No,No,Yes,No,Yes,No,Yes,No,No,,,,,NATO UNCLASSIFIED,PFP,,CENTRALLY MANAGED,44946.34591,,
CZ0121,POSTORNA RDBC,Road Border Crossing Point,CZE: Czech Republic,,484259N0165003E,48.7163887,N,16.83416748,E,,,,No,No,Yes,No,No,No,Yes,No,No,,,,,NATO UNCLASSIFIED,PFP,,CENTRALLY MANAGED,44946.34591,,"KASARNA DZ usage: Normal storage type: Warehouse
MALE DC usage: Parking type: Open
VOZATAJSKA KASARNA usage: Normal storage type: Warehouse
ZBROJNI SKLAD usage: Normal storage type: Warehouse"
CZ0122,STARY HROZENKOV RDBC,Road Border Crossing Point,CZE: Czech Republic,,485707N0175347E,48.95194626,N,17.89639091,E,,,,No,No,Yes,No,No,No,Yes,No,No,,,,,NATO UNCLASSIFIED,PFP,,CENTRALLY MANAGED,44946.34591,,"JIDELNI BLOK usage: Parking type: Open
KASARNA usage: Normal storage type: Warehouse"
CZ0123,STRAZNY RDBC,Road Border Crossing Point,CZE: Czech Republic,,485252N0134216E,48.88111115,N,13.70444584,E,,,,No,No,Yes,No,No,No,Yes,No,No,,,,,NATO UNCLASSIFIED,PFP,,CENTRALLY MANAGED,44946.34591,,STEPANOV usage: Normal storage type: Warehouse
CZ0124,ZELEZNA RUDA RDBC,Road Border Crossing Point,CZE: Czech Republic,,490722N0131216E,49.12277985,N,13.20444489,E,,,,No,No,Yes,No,No,No,Yes,No,No,,,,,NATO UNCLASSIFIED,PFP,,CENTRALLY MANAGED,44946.34591,,
CZ0125,MOSTY U JABLUNKOVA RLBC,Rail Border Crossing Point,CZE: Czech Republic,,492943N0184558E,49.4952774,N,18.76611328,E,,,,No,No,Yes,No,Yes,No,Yes,No,No,,,,,NATO UNCLASSIFIED,PFP,,CENTRALLY MANAGED,44946.34593,,
CZ0126,KRASNY LES RDBC,Road Border Crossing Point,CZE: Czech Republic,,504659N0135354E,50.78305817,N,13.89833546,E,,,,No,No,Yes,No,No,No,Yes,No,No,,,,,NATO UNCLASSIFIED,PFP,,CENTRALLY MANAGED,44946.34593,,
CZ0127,PETROVICE RDBC,Road Border Crossing Point,CZE: Czech Republic,,504853N0135854E,50.81472397,N,13.98166847,E,,,,No,No,Yes,No,No,No,Yes,No,No,,,,,NATO UNCLASSIFIED,PFP,,CENTRALLY MANAGED,44946.34593,,
CZ0128,BRECLAV (D2) RDBC,Road Border Crossing Point,CZE: Czech Republic,,484110N0165913E,48.68611145,N,16.98694611,E,,,,No,No,Yes,No,No,No,Yes,No,No,,,,,NATO UNCLASSIFIED,PFP,,CENTRALLY MANAGED,44946.34593,,
CZ0129,MOSTY U JABLUNKOVA RDBC,Road Border Crossing Point,CZE: Czech Republic,,492942N0184557E,49.49500275,N,18.76583481,E,,,,No,No,Yes,No,No,No,Yes,No,No,,,,,NATO UNCLASSIFIED,PFP,,CENTRALLY MANAGED,44946.34593,,
CZ0130,RUMBURK,Road Border Crossing Point,CZE: Czech Republic,,505735N0143534E,50.95972443,N,14.59277916,E,,,,No,No,Yes,No,No,No,Yes,No,No,,,,,NATO UNCLASSIFIED,PFP,,CENTRALLY MANAGED,44946.34593,,74.lmopr usage: Normal storage type: Covered
CZ0131,SVATY KRIZ,Road Border Crossing Point,CZE: Czech Republic,,500223N0122017E,50.03972244,N,12.33805656,E,,,,No,No,Yes,No,No,No,Yes,No,No,,,,,NATO UNCLASSIFIED,PFP,,CENTRALLY MANAGED,44946.34593,,7.mb usage: Normal storage type: Covered
CZ0132,VOJTANOV,Road Border Crossing Point,CZE: Czech Republic,,501022N0121855E,50.17277908,N,12.31527805,E,,,,No,No,Yes,No,No,No,Yes,No,No,,,,,NATO UNCLASSIFIED,PFP,,CENTRALLY MANAGED,44946.34593,,CH-2 usage: Explosives storage type: Warehouse
CZ0133,BARTULTOVICE,Road Border Crossing Point,CZE: Czech Republic,,501643N0173520E,50.27861023,N,17.58889008,E,,,,No,No,Yes,No,No,No,Yes,No,No,,,,,NATO UNCLASSIFIED,PFP,,CENTRALLY MANAGED,44946.34593,,JH-2 usage: Explosives storage type: Warehouse
CZ0134,BOHUM?N,Road Border Crossing Point,CZE: Czech Republic,,495500N0181923E,49.91666794,N,18.32305527,E,,,,No,No,Yes,No,No,No,Yes,No,No,,,,,NATO UNCLASSIFIED,PFP,,CENTRALLY MANAGED,44946.34593,,Garrison of Praslavice usage: Normal storage type: Open
CZ0135,BILA BUMBALKA,Road Border Crossing Point,CZE: Czech Republic,,492357N0182435E,49.39916611,N,18.40972328,E,,,,No,No,Yes,No,No,No,Yes,No,No,,,,,NATO UNCLASSIFIED,PFP,,CENTRALLY MANAGED,44946.34593,,T-2 usage: Explosives storage type: Warehouse
CZ0136,STRELNA,Road Border Crossing Point,CZE: Czech Republic,,491057N0180752E,49.18249893,N,18.13111115,E,,,,No,No,Yes,No,No,No,Yes,No,No,,,,,NATO UNCLASSIFIED,PFP,,CENTRALLY MANAGED,44946.34593,,Z-2 usage: Explosives storage type: Warehouse
CZ0137,HATE,Road Border Crossing Point,CZE: Czech Republic,,484518N0160353E,48.75500107,N,16.06472206,E,,,,No,No,Yes,No,No,No,Yes,No,No,,,,,NATO UNCLASSIFIED,PFP,,CENTRALLY MANAGED,44946.34593,,Odstavna plocha usage: Normal storage type: Open
CZ0138,NOVA BYSTRICE,Road Border Crossing Point,CZE: Czech Republic,,485957N0150655E,48.9991684,N,15.11527824,E,,,,No,No,Yes,No,No,No,Yes,No,No,,,,,NATO UNCLASSIFIED,PFP,,CENTRALLY MANAGED,44946.34593,,CZM usage: Explosives storage type: Warehouse
CZ0139,STUDANKY,Road Border Crossing Point,CZE: Czech Republic,,483348N0141859E,48.56333542,N,14.31638908,E,,,,No,No,Yes,No,No,No,Yes,No,No,,,,,NATO UNCLASSIFIED,PFP,,CENTRALLY MANAGED,44946.34593,,CZM 1 usage: Explosives storage type: Open
CZ0140,LANZHOT RLBC,Rail Border Crossing Point,CZE: Czech Republic,,484240N0170000E,48.71111298,N,17,E,,,,No,No,Yes,No,Yes,No,Yes,No,No,,,,,NATO UNCLASSIFIED,PFP,,CENTRALLY MANAGED,44946.34593,,CZM usage: Explosives storage type: Warehouse
CZ0141,PETROVICE U KARVINE RLBC,Rail Border Crossing Point,CZE: Czech Republic,,495307N0183421E,49.88528061,N,18.57250023,E,,,,No,No,Yes,No,Yes,No,Yes,No,No,,,,,NATO UNCLASSIFIED,PFP,,CENTRALLY MANAGED,44946.34593,,CZM 2 usage: Explosives storage type: Open
CZ0142,MEZIMESTI RLBC,Rail Border Crossing Point,CZE: Czech Republic,,503818N0161322E,50.63833618,N,16.22277832,E,,,,No,No,Yes,No,Yes,No,Yes,No,No,,,,,NATO UNCLASSIFIED,PFP,,CENTRALLY MANAGED,44946.34593,,CZM usage: Explosives storage type: Warehouse
EN0014,MURATI RD BXP,Road Border Crossing Point,EST: Estonia,N/A,573516N0270352E,57.58778,N,27.0644455,E,35V 503852 6382819,35V ND 03853 82820,,No,No,No,No,No,No,Yes,No,No,,,SFGPI----------,,,,,toomas.parnpuu@ee,44498.50707,,
EN0023,VALGA RL BXP,Rail Border Crossing Point,EST: Estonia,N/A,574557N0260108E,57.76583481,N,26.01888847,E,35V 441634 6403063,35V ME 41634 03063,,No,No,No,No,No,No,Yes,No,No,,,SFGPIT----HB---,,,,,toomas.parnpuu@ee,44498.40883,,
EN0024,IKLA RD BXP,Road Border Crossing Point,EST: Estonia,N/A,575236N0242304E,57.87666702,N,24.38444519,E,35V 344881 6417984,35V LE 44881 17984,,No,No,Yes,No,No,No,Yes,No,No,,,SFGPI----------,,,,,toomas.parnpuu@ee,44498.40824,,
EN0025,VALGA RD BXP,Rail Border Crossing Point,EST: Estonia,N/A,574728N0260159E,57.79111099,N,26.03305626,E,35V 442512 6405864,35V ME 42512 05864,,No,No,Yes,No,Yes,No,Yes,No,No,,,SFGPIT----HB---,,,,,toomas.parnpuu@ee,44498.40855,,
EN0026,KOIDULA RL BXP,Rail Border Crossing Point,EST: Estonia,N/A,575013N0273641E,57.83694458,N,27.61139107,E,35V 536302 6410720,35V NE 36303 10721,,No,No,Yes,No,Yes,No,Yes,No,No,,,SFGPIT----HB---,,,,,toomas.parnpuu@ee,44498.36639,,
EN0027,NARVA RL BXP,Rail Border Crossing Point,EST: Estonia,N/A,592234N0281148E,59.37611008,N,28.19666672,E,35V 567997 6582544,35V NF 67998 82545,,No,No,Yes,No,Yes,No,Yes,No,No,,,SFGPIT----HB---,,,,,toomas.parnpuu@ee,44498.36704,,
FI0040,Tornio,Rail Border Crossing Point,FIN: Finland,,655028N0240844E,65.84111023,N,24.1455555,E,,,,No,No,No,No,Yes,No,No,No,No,,,,,NATO UNCLASSIFIED,EXER,road and rail from SWE.,CENTRALLY MANAGED,44229.65478,Rail:  Assets at / Day,
FI0041,Ylitornio,Road Border Crossing Point,FIN: Finland,,662242N0234131E,66.37833405,N,23.69194603,E,,,,No,No,No,No,No,No,No,No,No,,,,,NATO UNCLASSIFIED,EXER,road from SWE. customs by request.,CENTRALLY MANAGED,44229.65478,Rail:  Assets at / Day,
FI0042,Pello,Road Border Crossing Point,FIN: Finland,,664803N0235917E,66.80083466,N,23.98805809,E,,,,No,No,No,No,No,No,No,No,No,,,,,NATO UNCLASSIFIED,EXER,road from SWE. customs by request.,CENTRALLY MANAGED,44229.65478,Rail:  Assets at / Day,
FI0043,Kolari,Road Border Crossing Point,FIN: Finland,,671840N0234507E,67.31111145,N,23.7519455,E,,,,No,No,No,No,No,No,No,No,No,,,,,NATO UNCLASSIFIED,EXER,road from SWE,CENTRALLY MANAGED,44229.65478,Rail:  Assets at / Day,
FI0044,Muonio,Road Border Crossing Point,FIN: Finland,,675621N0233958E,67.93917084,N,23.6661129,E,,,,No,No,No,No,No,No,No,No,No,,,,,NATO UNCLASSIFIED,EXER,road from SWE,CENTRALLY MANAGED,44229.65478,Rail:  Assets at / Day,
FI0045,Kaaresuvanto,Road Border Crossing Point,FIN: Finland,,682642N0222837E,68.44499969,N,22.47694588,E,,,,No,No,No,No,No,No,No,No,No,,,,,NATO UNCLASSIFIED,EXER,road from SWE,CENTRALLY MANAGED,44229.65478,Rail:  Assets at / Day,
FI0046,KilpisjÑrvi,Road Border Crossing Point,FIN: Finland,,690642N0204459E,69.11166382,N,20.74972343,E,,,,No,No,No,No,No,No,No,No,No,,,,,NATO UNCLASSIFIED,EXER,road from NOR,CENTRALLY MANAGED,44229.65478,Rail:  Assets at / Day,
FI0047,Kivilompolo,Road Border Crossing Point,FIN: Finland,,683936N0231926E,68.66000366,N,23.32388878,E,,,,No,No,No,No,No,No,No,No,No,,,,,NATO UNCLASSIFIED,EXER,road from NOR,CENTRALLY MANAGED,44229.65478,Rail:  Assets at / Day,
FI0048,Karigasniemi,Road Border Crossing Point,FIN: Finland,,692351N0255117E,69.39749908,N,25.85472488,E,,,,No,No,No,No,No,No,No,No,No,,,,,NATO UNCLASSIFIED,EXER,road from NOR,CENTRALLY MANAGED,44229.65478,Rail:  Assets at / Day,
FI0049,Utsjoki,Road Border Crossing Point,FIN: Finland,,695435N0270133E,69.90972137,N,27.02583313,E,,,,No,No,No,No,No,No,No,No,No,,,,,NATO UNCLASSIFIED,EXER,road from NOR,CENTRALLY MANAGED,44229.65478,Rail:  Assets at / Day,
FI0050,Nuorgam,Road Border Crossing Point,FIN: Finland,,700519N0275736E,70.08860779,N,27.96000099,E,,,,No,No,No,No,No,No,No,No,No,,,,,NATO UNCLASSIFIED,EXER,road from NOR. customs by request.,CENTRALLY MANAGED,44229.65478,Rail:  Assets at / Day,
FI0051,NÑÑtÑmî,Road Border Crossing Point,FIN: Finland,,694036N0290846E,69.67666626,N,29.14611053,E,,,,No,No,No,No,No,No,No,No,No,,,,,NATO UNCLASSIFIED,EXER,road from RUS,CENTRALLY MANAGED,44229.65478,Rail:  Assets at / Day,
FI0122,Karigasniemi,Road Border Crossing Point,FIN: Finland,,692351N0255117E,69.39749908,N,25.85472488,E,,,,No,No,Yes,No,No,No,Yes,No,No,,,,,NATO UNCLASSIFIED,,road from NOR,CENTRALLY MANAGED,44946.34705,,
FI0123,Utsjoki,Road Border Crossing Point,FIN: Finland,,695435N0270133E,69.90972137,N,27.02583313,E,,,,No,No,Yes,No,No,No,Yes,No,No,,,,,NATO UNCLASSIFIED,,road from NOR,CENTRALLY MANAGED,44946.34705,,
FI0124,Nuorgam,Road Border Crossing Point,FIN: Finland,,700519N0275736E,70.08860779,N,27.96000099,E,,,,No,No,Yes,No,No,No,Yes,No,No,,,,,NATO UNCLASSIFIED,,road from NOR. customs by request.,CENTRALLY MANAGED,44946.34705,,
FI0125,NÑÑtÑmî,Road Border Crossing Point,FIN: Finland,,694036N0290846E,69.67666626,N,29.14611053,E,,,,No,No,No,No,No,No,Yes,No,No,,,,,NATO UNCLASSIFIED,,road from RUS,CENTRALLY MANAGED,44595.41009,,
FI0126,Tornio,Rail Border Crossing Point,FIN: Finland,,655028N0240844E,65.84111023,N,24.1455555,E,,,,No,No,No,No,Yes,No,Yes,No,No,,,,,NATO UNCLASSIFIED,,road and rail from SWE.,CENTRALLY MANAGED,44946.34705,,
FI0127,Ylitornio,Road Border Crossing Point,FIN: Finland,,662242N0234131E,66.37833405,N,23.69194603,E,,,,No,No,Yes,No,No,No,Yes,No,No,,,,,NATO UNCLASSIFIED,,road from SWE. customs by request.,CENTRALLY MANAGED,44946.34705,,
FI0128,Pello,Road Border Crossing Point,FIN: Finland,,664803N0235917E,66.80083466,N,23.98805809,E,,,,No,No,Yes,No,No,No,Yes,No,No,,,,,NATO UNCLASSIFIED,,road from SWE. customs by request.,CENTRALLY MANAGED,44946.34705,,
FI0129,Kolari,Road Border Crossing Point,FIN: Finland,,671840N0234507E,67.31111145,N,23.7519455,E,,,,No,No,Yes,No,No,No,Yes,No,No,,,,,NATO UNCLASSIFIED,,road from SWE,CENTRALLY MANAGED,44946.34705,,
FI0130,Muonio,Road Border Crossing Point,FIN: Finland,,675621N0233958E,67.93917084,N,23.6661129,E,,,,No,No,Yes,No,No,No,Yes,No,No,,,,,NATO UNCLASSIFIED,,road from SWE,CENTRALLY MANAGED,44946.34705,,
FI0131,Kaaresuvanto,Road Border Crossing Point,FIN: Finland,,682642N0222837E,68.44499969,N,22.47694588,E,,,,No,No,Yes,No,No,No,Yes,No,No,,,,,NATO UNCLASSIFIED,,road from SWE,CENTRALLY MANAGED,44946.34705,,
FI0132,KilpisjÑrvi,Road Border Crossing Point,FIN: Finland,,690642N0204459E,69.11166382,N,20.74972343,E,,,,No,No,Yes,No,No,No,Yes,No,No,,,,,NATO UNCLASSIFIED,,road from NOR,CENTRALLY MANAGED,44946.34706,,
FI0133,Kivilompolo,Road Border Crossing Point,FIN: Finland,,683936N0231926E,68.66000366,N,23.32388878,E,,,,No,No,Yes,No,No,No,Yes,No,No,,,,,NATO UNCLASSIFIED,,road from NOR,CENTRALLY MANAGED,44946.34706,,
GX0048,SWIECKO RDBP,Road Border Crossing Point,POL: Poland,N/A,522134N0143528E,52.35944366,N,14.59111214,E,33U 472154 5801096,33U VU 72155 01097,,No,No,Yes,No,No,No,No,,No,,,SFGPIT----HB---,,,,,jfcbs.ada@ais,45086.45394,,
LO1261,KOMARNO RAIL,Rail Border Crossing Point,SVK: Slovakia,N/A,474523N0180512E,47.75638962,N,18.08666611,E,34T 281666 5293335,34T BT 81666 93335,,No,No,No,No,Yes,No,Yes,No,No,,,SFGPIT----HB---,,,,Shengen SVK/HUN,sverhap@sk,44511.43047,,
NE0093,RDBC UDVAR / DUBOSEVICA,Road Border Crossing Point,HUN: Hungary,N/A,455341N0183938E,45.8947258,N,18.66055679,E,34T 318509 5085011,34T CR 18510 85012,,No,No,Yes,No,No,No,No,,No,,,SFGPI----------,,,,,jfcbs.ada@ais,45086.45394,,
NO0118,BJORNFJELL BCP,Road Border Crossing Point,NOR: Norway,,682552N0180623E,68.4311142,N,18.10639,E,,,,No,No,Yes,No,Yes,No,No,,No,,,,,,,,,,Rail: 0 Assets at / Day,
NO0119,HELLIGSKOGEN BCP,Road Border Crossing Point,NOR: Norway,,690709N0204437E,69.11916351,N,20.74361229,E,,,,No,No,Yes,No,No,No,No,,No,,,,,,,,,,Rail: 0 Assets at / Day,
NO0120,?RJE,Road Border Crossing Point,NOR: Norway,,592912N0114453E,59.48666763,N,11.74805737,E,,,,No,No,No,No,Yes,No,No,,No,,,,,,,,,,Rail:  Assets at / Day,
NO0121,SVINESUND,Road Border Crossing Point,NOR: Norway,,590542N0111506E,59.09500122,N,11.25166702,E,,,,No,No,Yes,No,Yes,No,No,,No,,,,,,,,,,Rail:  Assets at / Day,
NO0122,STORLIEN,Road Border Crossing Point,NOR: Norway,,632001N0120315E,63.33361053,N,12.05416679,E,,,,No,No,Yes,No,Yes,No,No,,No,,,,,,,,,,Rail:  Assets at / Day,
NO0123,GRADDIS,Road Border Crossing Point,NOR: Norway,,664519N0155007E,66.75527954,N,15.83527946,E,,,,No,No,No,No,Yes,No,No,,No,,,,,,,,,,Rail:  Assets at / Day,
NO0124,UMBUKTA,Road Border Crossing Point,NOR: Norway,,660808N0143527E,66.13555908,N,14.59083462,E,,,,No,No,No,No,Yes,No,No,,No,,,,,,,,,,Rail:  Assets at / Day,
